{
"type": "FeatureCollection",
"name": "stats_communes",
"crs": { "type": "name", "properties": { "name": "urn:ogc:def:crs:OGC:1.3:CRS84" } },
"features": [
{ "type": "Feature", "properties": { "code_insee": "54025", "name": "Art-sur-Meurthe", "population_totale": 1487.0, "pop_le_5min": 1151.0, "pct_le_5min": 77.4, "pop_le_10min": 1484.0, "pct_le_10min": 99.8, "pop_le_15min": 1484.0, "pct_le_15min": 99.8 }, "geometry": { "type": "Polygon", "coordinates": [ [ [ 6.2241242, 48.6709991 ], [ 6.2247372, 48.6709823 ], [ 6.2248827, 48.6711309 ], [ 6.2252112, 48.6713096 ], [ 6.2251993, 48.6713193 ], [ 6.2255654, 48.6715024 ], [ 6.2259985, 48.6717676 ], [ 6.2265564, 48.6721506 ], [ 6.2265705, 48.6721436 ], [ 6.226676, 48.6721131 ], [ 6.2268776, 48.6719791 ], [ 6.2269792, 48.6719217 ], [ 6.227823, 48.6713738 ], [ 6.2279654, 48.6714495 ], [ 6.2300755, 48.6720276 ], [ 6.2332962, 48.672973 ], [ 6.2364661, 48.6720418 ], [ 6.2385053, 48.6717505 ], [ 6.2391234, 48.6715186 ], [ 6.2418416, 48.6730887 ], [ 6.2423309, 48.6724952 ], [ 6.2468884, 48.6736028 ], [ 6.2476507, 48.6732882 ], [ 6.2487648, 48.6736158 ], [ 6.250658, 48.6725637 ], [ 6.2558032, 48.675181 ], [ 6.2561015, 48.6747161 ], [ 6.2566544, 48.6747192 ], [ 6.2579291, 48.6732558 ], [ 6.2596872, 48.6738937 ], [ 6.2576292, 48.6756171 ], [ 6.2584029, 48.6763001 ], [ 6.2619734, 48.6782618 ], [ 6.2668134, 48.6801794 ], [ 6.2673842, 48.6797715 ], [ 6.2696727, 48.6803356 ], [ 6.2712835, 48.6810118 ], [ 6.2728979, 48.6800355 ], [ 6.2739063, 48.6796568 ], [ 6.2764309, 48.6772737 ], [ 6.2759408, 48.676581 ], [ 6.2757456, 48.6747469 ], [ 6.2755822, 48.6745862 ], [ 6.2764871, 48.6735346 ], [ 6.277308, 48.6735394 ], [ 6.2781406, 48.6726344 ], [ 6.2795849, 48.6718413 ], [ 6.2774173, 48.6706855 ], [ 6.2784229, 48.6700629 ], [ 6.2806932, 48.669341 ], [ 6.279495, 48.6681626 ], [ 6.2799635, 48.6677361 ], [ 6.2815974, 48.667014 ], [ 6.284092, 48.664898 ], [ 6.2847369, 48.6650086 ], [ 6.2854727, 48.6639406 ], [ 6.2825671, 48.6631876 ], [ 6.2829865, 48.6623524 ], [ 6.2839103, 48.6623434 ], [ 6.2842508, 48.6623379 ], [ 6.284573, 48.662343 ], [ 6.2850123, 48.6623575 ], [ 6.2854691, 48.6615499 ], [ 6.2865113, 48.6604815 ], [ 6.2872875, 48.6607955 ], [ 6.2884589, 48.6597079 ], [ 6.2881057, 48.6594973 ], [ 6.2883013, 48.6592356 ], [ 6.2863295, 48.6583168 ], [ 6.2867989, 48.6578705 ], [ 6.2858995, 48.6574399 ], [ 6.2864913, 48.6570212 ], [ 6.2868231, 48.6569619 ], [ 6.2876333, 48.6562649 ], [ 6.2872031, 48.6559932 ], [ 6.2884751, 48.6550572 ], [ 6.2893634, 48.6541344 ], [ 6.2890809, 48.6539054 ], [ 6.2902165, 48.652767 ], [ 6.2922769, 48.6511665 ], [ 6.2917396, 48.6507552 ], [ 6.292055, 48.6504894 ], [ 6.2918204, 48.6502587 ], [ 6.2926972, 48.6494956 ], [ 6.2901657, 48.6478797 ], [ 6.2891036, 48.6475185 ], [ 6.2880365, 48.6473964 ], [ 6.2869583, 48.6462235 ], [ 6.2858368, 48.6466288 ], [ 6.284906, 48.6461038 ], [ 6.2845002, 48.6449235 ], [ 6.2855547, 48.6448868 ], [ 6.2854362, 48.6446043 ], [ 6.2843426, 48.6447538 ], [ 6.282833, 48.6438985 ], [ 6.2833528, 48.6434823 ], [ 6.2815319, 48.6420326 ], [ 6.2819659, 48.6417468 ], [ 6.28128, 48.6412769 ], [ 6.2808953, 48.6412744 ], [ 6.2803606, 48.6408948 ], [ 6.2803229, 48.6407209 ], [ 6.2788181, 48.6397626 ], [ 6.2773627, 48.6402752 ], [ 6.2745133, 48.6416937 ], [ 6.2690923, 48.6454682 ], [ 6.2665514, 48.6456237 ], [ 6.2652066, 48.6467023 ], [ 6.2647675, 48.6479356 ], [ 6.2640267, 48.6476059 ], [ 6.2620531, 48.6488076 ], [ 6.2609359, 48.6482372 ], [ 6.2601834, 48.6490583 ], [ 6.2589941, 48.6498438 ], [ 6.2548113, 48.6499035 ], [ 6.253752, 48.6490941 ], [ 6.2525971, 48.648694 ], [ 6.2520396, 48.6487471 ], [ 6.2507475, 48.6488762 ], [ 6.2484932, 48.6504088 ], [ 6.2487058, 48.6508413 ], [ 6.2480834, 48.6513703 ], [ 6.2460479, 48.6524385 ], [ 6.2447586, 48.6535826 ], [ 6.2443676, 48.6544588 ], [ 6.2446388, 48.6553123 ], [ 6.2454736, 48.6555374 ], [ 6.2451775, 48.6566473 ], [ 6.2445931, 48.6566843 ], [ 6.241855, 48.6575905 ], [ 6.2418612, 48.6579963 ], [ 6.2423746, 48.6580294 ], [ 6.2426453, 48.6592044 ], [ 6.2419854, 48.6595823 ], [ 6.243494, 48.660258 ], [ 6.2454852, 48.6609001 ], [ 6.2456307, 48.6614534 ], [ 6.2443304, 48.6614812 ], [ 6.2411861, 48.6611155 ], [ 6.2382538, 48.6605226 ], [ 6.2374093, 48.6605008 ], [ 6.2356163, 48.6601055 ], [ 6.2338378, 48.6598958 ], [ 6.2325507, 48.6600922 ], [ 6.2308236, 48.6605405 ], [ 6.2296941, 48.6611206 ], [ 6.2289533, 48.6617719 ], [ 6.2284666, 48.662736 ], [ 6.2285333, 48.663918 ], [ 6.2291213, 48.6642531 ], [ 6.2294705, 48.6647995 ], [ 6.2301174, 48.6652341 ], [ 6.2312764, 48.665685 ], [ 6.2315105, 48.6660661 ], [ 6.2313826, 48.6663919 ], [ 6.2304928, 48.6670991 ], [ 6.2283711, 48.6677301 ], [ 6.2267578, 48.6680053 ], [ 6.2252495, 48.6689704 ], [ 6.2241242, 48.6709991 ] ] ] } },
{ "type": "Feature", "properties": { "code_insee": "54165", "name": "Dommartemont", "population_totale": 844.0, "pop_le_5min": 457.0, "pct_le_5min": 54.15, "pop_le_10min": 839.0, "pct_le_10min": 99.41, "pop_le_15min": 844.0, "pct_le_15min": 100.0 }, "geometry": { "type": "Polygon", "coordinates": [ [ [ 6.2065101, 48.7162256 ], [ 6.2148216, 48.7240867 ], [ 6.2148978, 48.7241588 ], [ 6.216045, 48.7229267 ], [ 6.21821, 48.7212103 ], [ 6.2189955, 48.7206707 ], [ 6.2195443, 48.7206346 ], [ 6.220139, 48.720849 ], [ 6.2198887, 48.7221873 ], [ 6.2201319, 48.7222746 ], [ 6.2201971, 48.7237846 ], [ 6.2204766, 48.7245051 ], [ 6.2215788, 48.7241944 ], [ 6.2216334, 48.7241788 ], [ 6.2213789, 48.723779 ], [ 6.2231359, 48.7232323 ], [ 6.2235794, 48.7235301 ], [ 6.224168, 48.7241705 ], [ 6.2260934, 48.7225838 ], [ 6.2255168, 48.7190457 ], [ 6.2250662, 48.7190418 ], [ 6.2248624, 48.7190167 ], [ 6.2240221, 48.7191119 ], [ 6.2230325, 48.7191509 ], [ 6.2222653, 48.7192709 ], [ 6.2219001, 48.7190287 ], [ 6.221704, 48.7184879 ], [ 6.2221651, 48.7174918 ], [ 6.2199126, 48.716983 ], [ 6.2197728, 48.7166695 ], [ 6.2206846, 48.7167657 ], [ 6.2206381, 48.7161689 ], [ 6.2200746, 48.7161451 ], [ 6.2194737, 48.7149919 ], [ 6.2187114, 48.7140829 ], [ 6.2178406, 48.7115703 ], [ 6.2180622, 48.7107254 ], [ 6.2149914, 48.7099781 ], [ 6.2142635, 48.7098824 ], [ 6.2142897, 48.7097513 ], [ 6.2138383, 48.7096607 ], [ 6.2133343, 48.7105794 ], [ 6.2127573, 48.7103724 ], [ 6.2123328, 48.7110956 ], [ 6.2113625, 48.710796 ], [ 6.2113833, 48.7106892 ], [ 6.2104216, 48.7103122 ], [ 6.2073241, 48.7101042 ], [ 6.2069253, 48.7119112 ], [ 6.2065522, 48.7118901 ], [ 6.2064449, 48.7138848 ], [ 6.2065101, 48.7162256 ] ] ] } },
{ "type": "Feature", "properties": { "code_insee": "54184", "name": "Essey-lès-Nancy", "population_totale": 8507.5, "pop_le_5min": 6933.5, "pct_le_5min": 81.5, "pop_le_10min": 8499.5, "pct_le_10min": 99.91, "pop_le_15min": 8499.5, "pct_le_15min": 99.91 }, "geometry": { "type": "Polygon", "coordinates": [ [ [ 6.2146603, 48.6993979 ], [ 6.2146373, 48.6995019 ], [ 6.214337, 48.700857 ], [ 6.2142427, 48.7014906 ], [ 6.2155559, 48.7017483 ], [ 6.2158916, 48.701882 ], [ 6.2157564, 48.7028088 ], [ 6.2158957, 48.7028701 ], [ 6.2159402, 48.7034423 ], [ 6.2152808, 48.7049678 ], [ 6.2151189, 48.7049428 ], [ 6.2149324, 48.7054221 ], [ 6.2148781, 48.7054726 ], [ 6.2143297, 48.7067587 ], [ 6.2146105, 48.7067958 ], [ 6.2154174, 48.7070719 ], [ 6.2156736, 48.7071004 ], [ 6.2157633, 48.7071099 ], [ 6.2159012, 48.707122 ], [ 6.2159031, 48.7072023 ], [ 6.2158857, 48.7075042 ], [ 6.215828, 48.7078858 ], [ 6.215667, 48.7083279 ], [ 6.2154822, 48.7088239 ], [ 6.2153412, 48.7091762 ], [ 6.2152986, 48.7092826 ], [ 6.2152889, 48.7092959 ], [ 6.2151414, 48.709631 ], [ 6.2149914, 48.7099781 ], [ 6.2180622, 48.7107254 ], [ 6.2178406, 48.7115703 ], [ 6.2187114, 48.7140829 ], [ 6.2194737, 48.7149919 ], [ 6.2200746, 48.7161451 ], [ 6.2206381, 48.7161689 ], [ 6.2206846, 48.7167657 ], [ 6.2197728, 48.7166695 ], [ 6.2199126, 48.716983 ], [ 6.2221651, 48.7174918 ], [ 6.221704, 48.7184879 ], [ 6.2219001, 48.7190287 ], [ 6.2222653, 48.7192709 ], [ 6.2230325, 48.7191509 ], [ 6.2240221, 48.7191119 ], [ 6.2248624, 48.7190167 ], [ 6.2250662, 48.7190418 ], [ 6.2255168, 48.7190457 ], [ 6.2260169, 48.7190729 ], [ 6.2269987, 48.7191197 ], [ 6.2277569, 48.7191214 ], [ 6.228035, 48.7191119 ], [ 6.2285225, 48.7190698 ], [ 6.2289935, 48.7189716 ], [ 6.2295542, 48.7187289 ], [ 6.2299753, 48.7187301 ], [ 6.2310818, 48.7184807 ], [ 6.2313402, 48.7184386 ], [ 6.2317285, 48.7185353 ], [ 6.2325778, 48.718808 ], [ 6.2326608, 48.7188391 ], [ 6.2336454, 48.7189249 ], [ 6.235009, 48.7190573 ], [ 6.2356671, 48.7191435 ], [ 6.2363259, 48.7190885 ], [ 6.237469, 48.7190563 ], [ 6.2384765, 48.7191509 ], [ 6.2390764, 48.7192238 ], [ 6.2393103, 48.7192522 ], [ 6.2401773, 48.7193389 ], [ 6.2405908, 48.7193802 ], [ 6.2420276, 48.7195238 ], [ 6.2437208, 48.7200132 ], [ 6.2462553, 48.7196969 ], [ 6.2473918, 48.7175061 ], [ 6.2494086, 48.7179398 ], [ 6.2501514, 48.7180988 ], [ 6.2507612, 48.716308 ], [ 6.2497586, 48.7160369 ], [ 6.2504065, 48.7149761 ], [ 6.2504576, 48.7148924 ], [ 6.2483759, 48.7141109 ], [ 6.249396, 48.7128774 ], [ 6.2501838, 48.7118467 ], [ 6.2492979, 48.7115298 ], [ 6.2498241, 48.7107147 ], [ 6.2495861, 48.7106544 ], [ 6.2499497, 48.7096666 ], [ 6.2503233, 48.7097531 ], [ 6.2508557, 48.7086307 ], [ 6.2490937, 48.7083058 ], [ 6.2493043, 48.7069373 ], [ 6.2495086, 48.7062521 ], [ 6.2497819, 48.7053842 ], [ 6.250001, 48.7047093 ], [ 6.248792, 48.7046015 ], [ 6.2487759, 48.7045619 ], [ 6.2490897, 48.7045986 ], [ 6.2490366, 48.7031336 ], [ 6.2489995, 48.7023193 ], [ 6.2490084, 48.7012859 ], [ 6.2491246, 48.700723 ], [ 6.2491693, 48.7005063 ], [ 6.2490603, 48.7004949 ], [ 6.2489555, 48.7004839 ], [ 6.2477537, 48.7003565 ], [ 6.2471524, 48.7003292 ], [ 6.2472072, 48.7001458 ], [ 6.2443386, 48.6999909 ], [ 6.2444618, 48.6992216 ], [ 6.2432846, 48.699122 ], [ 6.2424228, 48.6990495 ], [ 6.2424334, 48.6983837 ], [ 6.2412597, 48.6982369 ], [ 6.2409232, 48.6983524 ], [ 6.2396397, 48.6981679 ], [ 6.24008, 48.6973422 ], [ 6.2377788, 48.6969142 ], [ 6.2355165, 48.6962943 ], [ 6.2349865, 48.6968937 ], [ 6.2318238, 48.6956652 ], [ 6.2302618, 48.6967026 ], [ 6.2290789, 48.6960913 ], [ 6.2286643, 48.6964833 ], [ 6.2257695, 48.6953908 ], [ 6.2245675, 48.6966234 ], [ 6.2215071, 48.6956569 ], [ 6.2208157, 48.695556 ], [ 6.2207883, 48.6960094 ], [ 6.2199308, 48.6957896 ], [ 6.2198126, 48.6962046 ], [ 6.2200221, 48.6963179 ], [ 6.2196307, 48.6967672 ], [ 6.2195559, 48.6972554 ], [ 6.2198737, 48.697311 ], [ 6.2192823, 48.6988963 ], [ 6.2188972, 48.6988638 ], [ 6.2187652, 48.6992627 ], [ 6.2146603, 48.6993979 ] ] ] } },
{ "type": "Feature", "properties": { "code_insee": "54197", "name": "Fléville-devant-Nancy", "population_totale": 2329.5, "pop_le_5min": 2235.5, "pct_le_5min": 95.96, "pop_le_10min": 2328.5, "pct_le_10min": 99.96, "pop_le_15min": 2329.5, "pct_le_15min": 100.0 }, "geometry": { "type": "Polygon", "coordinates": [ [ [ 6.1805258, 48.6302666 ], [ 6.180986, 48.6318675 ], [ 6.1811369, 48.6336171 ], [ 6.1843759, 48.6354642 ], [ 6.1849859, 48.6360923 ], [ 6.1852928, 48.6363265 ], [ 6.1853453, 48.6365906 ], [ 6.1861115, 48.6377876 ], [ 6.1862943, 48.6389087 ], [ 6.1865101, 48.6392098 ], [ 6.1891395, 48.6408435 ], [ 6.1898441, 48.6410323 ], [ 6.1908548, 48.6418594 ], [ 6.1934739, 48.6434615 ], [ 6.1950852, 48.6420077 ], [ 6.1953519, 48.6421499 ], [ 6.195614, 48.6422848 ], [ 6.1958905, 48.6424223 ], [ 6.1957926, 48.6421334 ], [ 6.1957357, 48.6416647 ], [ 6.1945982, 48.6403121 ], [ 6.1947694, 48.64 ], [ 6.1946808, 48.6397863 ], [ 6.195403, 48.6391531 ], [ 6.1956229, 48.6392842 ], [ 6.195679, 48.6393339 ], [ 6.1956473, 48.6393844 ], [ 6.1957599, 48.6395143 ], [ 6.1958139, 48.6395421 ], [ 6.1958642, 48.6395921 ], [ 6.1962624, 48.6398417 ], [ 6.1965956, 48.6399131 ], [ 6.1967625, 48.6400898 ], [ 6.196762, 48.6401394 ], [ 6.1975235, 48.6404796 ], [ 6.1998265, 48.6407445 ], [ 6.2014251, 48.6414732 ], [ 6.2010986, 48.6419732 ], [ 6.2010567, 48.6420915 ], [ 6.2010939, 48.6421904 ], [ 6.2013356, 48.6425527 ], [ 6.201614, 48.64293 ], [ 6.2020233, 48.6432104 ], [ 6.2022482, 48.6433136 ], [ 6.2026914, 48.6434426 ], [ 6.2040438, 48.6440925 ], [ 6.2051165, 48.6443195 ], [ 6.2061579, 48.6448347 ], [ 6.2078524, 48.6455242 ], [ 6.2089404, 48.6459132 ], [ 6.2097601, 48.6467152 ], [ 6.2119073, 48.6472064 ], [ 6.212082, 48.6471064 ], [ 6.2131099, 48.6472863 ], [ 6.2132761, 48.6478585 ], [ 6.2147298, 48.6480373 ], [ 6.2147918, 48.6478161 ], [ 6.2162227, 48.6477876 ], [ 6.219554, 48.6471227 ], [ 6.2189433, 48.6458114 ], [ 6.2195106, 48.6456315 ], [ 6.2198637, 48.6458121 ], [ 6.2203102, 48.6456363 ], [ 6.2188633, 48.644161 ], [ 6.2159726, 48.6424942 ], [ 6.2164958, 48.642059 ], [ 6.216054, 48.6416728 ], [ 6.218023, 48.6402092 ], [ 6.2190778, 48.638825 ], [ 6.2174765, 48.6378525 ], [ 6.218634, 48.6365449 ], [ 6.2176963, 48.6363202 ], [ 6.2188686, 48.6345788 ], [ 6.2186188, 48.63417 ], [ 6.2188063, 48.6337784 ], [ 6.2194422, 48.633548 ], [ 6.2186497, 48.6323874 ], [ 6.2181066, 48.6310096 ], [ 6.219645, 48.6299298 ], [ 6.2205659, 48.6302514 ], [ 6.2210132, 48.6294657 ], [ 6.2217981, 48.6289734 ], [ 6.2211408, 48.6283057 ], [ 6.220852, 48.6277057 ], [ 6.2190217, 48.6262756 ], [ 6.2185122, 48.6262689 ], [ 6.2182759, 48.6259088 ], [ 6.2176782, 48.6253638 ], [ 6.2168465, 48.6237224 ], [ 6.2173849, 48.6232291 ], [ 6.2162544, 48.622463 ], [ 6.216821, 48.6220366 ], [ 6.2156863, 48.6210783 ], [ 6.2161677, 48.6206887 ], [ 6.2148615, 48.6196817 ], [ 6.2151414, 48.619333 ], [ 6.2139671, 48.6184058 ], [ 6.2135373, 48.6180665 ], [ 6.2132882, 48.6178698 ], [ 6.2144629, 48.6171852 ], [ 6.2138007, 48.6165633 ], [ 6.2124879, 48.6143168 ], [ 6.211644, 48.6145124 ], [ 6.2096895, 48.6138982 ], [ 6.2089274, 48.6132573 ], [ 6.2091684, 48.6125822 ], [ 6.2080897, 48.6124522 ], [ 6.204764, 48.6111762 ], [ 6.2017739, 48.6099025 ], [ 6.2026499, 48.6090573 ], [ 6.201861, 48.6088597 ], [ 6.1997452, 48.6088034 ], [ 6.1985899, 48.608661 ], [ 6.1979168, 48.6097527 ], [ 6.1976452, 48.6097833 ], [ 6.1964011, 48.6116213 ], [ 6.1969094, 48.6117322 ], [ 6.1969802, 48.6122322 ], [ 6.2005765, 48.6137131 ], [ 6.2023858, 48.6148058 ], [ 6.2026793, 48.6148493 ], [ 6.2026366, 48.6163792 ], [ 6.2006694, 48.6163713 ], [ 6.2001574, 48.6164208 ], [ 6.2001644, 48.6167198 ], [ 6.1983266, 48.617135 ], [ 6.1961911, 48.6178703 ], [ 6.1944241, 48.6179517 ], [ 6.1931773, 48.6197576 ], [ 6.1929254, 48.6196272 ], [ 6.1912906, 48.6203775 ], [ 6.1904216, 48.6199794 ], [ 6.1900571, 48.6202697 ], [ 6.1904603, 48.6204805 ], [ 6.189027, 48.6215445 ], [ 6.1879699, 48.6235149 ], [ 6.1876846, 48.623578 ], [ 6.187663, 48.6241345 ], [ 6.1873587, 48.6243693 ], [ 6.1876766, 48.6245188 ], [ 6.187319, 48.6251081 ], [ 6.1862397, 48.625957 ], [ 6.1868392, 48.6262039 ], [ 6.1859067, 48.6272829 ], [ 6.1856687, 48.6273337 ], [ 6.1842869, 48.6290693 ], [ 6.1839546, 48.6289416 ], [ 6.1805258, 48.6302666 ] ] ] } },
{ "type": "Feature", "properties": { "code_insee": "54257", "name": "Heillecourt", "population_totale": 5717.0, "pop_le_5min": 5283.5, "pct_le_5min": 92.42, "pop_le_10min": 5717.0, "pct_le_10min": 100.0, "pop_le_15min": 5717.0, "pct_le_15min": 100.0 }, "geometry": { "type": "Polygon", "coordinates": [ [ [ 6.1785306, 48.6514632 ], [ 6.1787067, 48.651518 ], [ 6.1794689, 48.6517551 ], [ 6.1805912, 48.6521043 ], [ 6.1809978, 48.6523685 ], [ 6.1811689, 48.6522969 ], [ 6.1821927, 48.6525475 ], [ 6.1820348, 48.6529331 ], [ 6.1840095, 48.6533489 ], [ 6.1851804, 48.6534071 ], [ 6.186587, 48.6534225 ], [ 6.1866256, 48.6537796 ], [ 6.1890032, 48.6538379 ], [ 6.1895162, 48.653762 ], [ 6.1895491, 48.6543314 ], [ 6.1895193, 48.6552319 ], [ 6.1892874, 48.6563733 ], [ 6.1893247, 48.6572862 ], [ 6.1888961, 48.6585731 ], [ 6.188781, 48.6589647 ], [ 6.1887643, 48.6594626 ], [ 6.1889845, 48.6594551 ], [ 6.1905569, 48.6598041 ], [ 6.1912562, 48.6598535 ], [ 6.1913, 48.6599909 ], [ 6.1914888, 48.6600065 ], [ 6.1914458, 48.6603776 ], [ 6.1942664, 48.660678 ], [ 6.194585, 48.6609516 ], [ 6.194647, 48.660921 ], [ 6.1948076, 48.6609156 ], [ 6.1950442, 48.6610604 ], [ 6.1950994, 48.660248 ], [ 6.1960357, 48.6602802 ], [ 6.1965054, 48.6601078 ], [ 6.1970084, 48.6600196 ], [ 6.19735, 48.6599955 ], [ 6.2021594, 48.6595921 ], [ 6.2040643, 48.6591042 ], [ 6.2042175, 48.659003 ], [ 6.2047535, 48.6588568 ], [ 6.2118971, 48.6583824 ], [ 6.2129621, 48.6558242 ], [ 6.2141399, 48.653755 ], [ 6.2131506, 48.651464 ], [ 6.2142999, 48.6498123 ], [ 6.2147298, 48.6480373 ], [ 6.2132761, 48.6478585 ], [ 6.2131099, 48.6472863 ], [ 6.212082, 48.6471064 ], [ 6.2119073, 48.6472064 ], [ 6.2097601, 48.6467152 ], [ 6.2089404, 48.6459132 ], [ 6.2078524, 48.6455242 ], [ 6.2061579, 48.6448347 ], [ 6.2051165, 48.6443195 ], [ 6.2040438, 48.6440925 ], [ 6.2026914, 48.6434426 ], [ 6.2022482, 48.6433136 ], [ 6.2020233, 48.6432104 ], [ 6.201614, 48.64293 ], [ 6.2013356, 48.6425527 ], [ 6.2010939, 48.6421904 ], [ 6.2010567, 48.6420915 ], [ 6.2010986, 48.6419732 ], [ 6.2014251, 48.6414732 ], [ 6.1998265, 48.6407445 ], [ 6.1975235, 48.6404796 ], [ 6.196762, 48.6401394 ], [ 6.1967625, 48.6400898 ], [ 6.1965956, 48.6399131 ], [ 6.1962624, 48.6398417 ], [ 6.1958642, 48.6395921 ], [ 6.1958139, 48.6395421 ], [ 6.1957599, 48.6395143 ], [ 6.1956473, 48.6393844 ], [ 6.195679, 48.6393339 ], [ 6.1956229, 48.6392842 ], [ 6.195403, 48.6391531 ], [ 6.1946808, 48.6397863 ], [ 6.1947694, 48.64 ], [ 6.1945982, 48.6403121 ], [ 6.1957357, 48.6416647 ], [ 6.1957926, 48.6421334 ], [ 6.1958905, 48.6424223 ], [ 6.195614, 48.6422848 ], [ 6.1953519, 48.6421499 ], [ 6.1950852, 48.6420077 ], [ 6.1934739, 48.6434615 ], [ 6.193619, 48.6435736 ], [ 6.192148, 48.644889 ], [ 6.1902093, 48.6438913 ], [ 6.1895427, 48.6444031 ], [ 6.1890437, 48.6441754 ], [ 6.1883865, 48.6446018 ], [ 6.1871615, 48.6443243 ], [ 6.1852427, 48.6441037 ], [ 6.1839854, 48.6465824 ], [ 6.1805395, 48.6487909 ], [ 6.1796444, 48.6503171 ], [ 6.1785306, 48.6514632 ] ] ] } },
{ "type": "Feature", "properties": { "code_insee": "54265", "name": "Houdemont", "population_totale": 2256.0, "pop_le_5min": 2097.0, "pct_le_5min": 92.95, "pop_le_10min": 2256.0, "pct_le_10min": 100.0, "pop_le_15min": 2256.0, "pct_le_15min": 100.0 }, "geometry": { "type": "Polygon", "coordinates": [ [ [ 6.1502847, 48.6431927 ], [ 6.1514405, 48.6430807 ], [ 6.1526939, 48.6432613 ], [ 6.1531509, 48.6432527 ], [ 6.1545254, 48.6431391 ], [ 6.1561653, 48.64321 ], [ 6.1564539, 48.6432225 ], [ 6.1577405, 48.6434219 ], [ 6.1582781, 48.6434038 ], [ 6.1584953, 48.6434505 ], [ 6.1595446, 48.643341 ], [ 6.1625271, 48.6426791 ], [ 6.1630984, 48.6426683 ], [ 6.1638456, 48.6428053 ], [ 6.1638281, 48.6434062 ], [ 6.1638947, 48.6440674 ], [ 6.1640951, 48.6446082 ], [ 6.1645215, 48.6451941 ], [ 6.1648696, 48.6460038 ], [ 6.1658907, 48.6473791 ], [ 6.1679516, 48.6466222 ], [ 6.1692736, 48.6481718 ], [ 6.1692283, 48.6484138 ], [ 6.1693462, 48.6485424 ], [ 6.1695199, 48.6487134 ], [ 6.1696069, 48.6488361 ], [ 6.1696171, 48.6490859 ], [ 6.1695524, 48.6494317 ], [ 6.1696255, 48.6496688 ], [ 6.1696268, 48.6500394 ], [ 6.1696501, 48.6501995 ], [ 6.1695721, 48.6503443 ], [ 6.1695912, 48.6505026 ], [ 6.1698828, 48.6511792 ], [ 6.1699281, 48.6516544 ], [ 6.1698702, 48.651872 ], [ 6.1699431, 48.6522885 ], [ 6.1716666, 48.651411 ], [ 6.1717479, 48.6513573 ], [ 6.172131, 48.6512438 ], [ 6.1732149, 48.6506277 ], [ 6.1736672, 48.6504808 ], [ 6.1742941, 48.6504523 ], [ 6.1758783, 48.6508156 ], [ 6.1760854, 48.6509257 ], [ 6.1769189, 48.6510421 ], [ 6.1780358, 48.6513132 ], [ 6.1785306, 48.6514632 ], [ 6.1796444, 48.6503171 ], [ 6.1805395, 48.6487909 ], [ 6.1839854, 48.6465824 ], [ 6.1852427, 48.6441037 ], [ 6.1871615, 48.6443243 ], [ 6.1883865, 48.6446018 ], [ 6.1890437, 48.6441754 ], [ 6.1895427, 48.6444031 ], [ 6.1902093, 48.6438913 ], [ 6.192148, 48.644889 ], [ 6.193619, 48.6435736 ], [ 6.1934739, 48.6434615 ], [ 6.1908548, 48.6418594 ], [ 6.1898441, 48.6410323 ], [ 6.1891395, 48.6408435 ], [ 6.1865101, 48.6392098 ], [ 6.1862943, 48.6389087 ], [ 6.1861115, 48.6377876 ], [ 6.1853453, 48.6365906 ], [ 6.1852928, 48.6363265 ], [ 6.1849859, 48.6360923 ], [ 6.1843759, 48.6354642 ], [ 6.1811369, 48.6336171 ], [ 6.180986, 48.6318675 ], [ 6.1805258, 48.6302666 ], [ 6.1800946, 48.6302918 ], [ 6.1800067, 48.6304011 ], [ 6.1784655, 48.629762 ], [ 6.1776621, 48.6297466 ], [ 6.1774655, 48.6299022 ], [ 6.1765743, 48.6299961 ], [ 6.1763593, 48.6301203 ], [ 6.1759313, 48.630188 ], [ 6.1761931, 48.6329654 ], [ 6.1758145, 48.6345096 ], [ 6.1729999, 48.6337965 ], [ 6.1714322, 48.6337035 ], [ 6.1704683, 48.6336581 ], [ 6.1701462, 48.6336163 ], [ 6.1697826, 48.6337222 ], [ 6.169614, 48.6339961 ], [ 6.1686653, 48.6343894 ], [ 6.1673997, 48.6346235 ], [ 6.1654573, 48.6337744 ], [ 6.1648844, 48.6344637 ], [ 6.1646329, 48.6355782 ], [ 6.1646609, 48.6367346 ], [ 6.1646625, 48.6368002 ], [ 6.1638245, 48.6380089 ], [ 6.1528908, 48.6351969 ], [ 6.1515128, 48.6383698 ], [ 6.1514837, 48.638828 ], [ 6.1513425, 48.6392561 ], [ 6.1507281, 48.6411185 ], [ 6.1501837, 48.6417642 ], [ 6.1502847, 48.6431927 ] ] ] } },
{ "type": "Feature", "properties": { "code_insee": "54274", "name": "Jarville-la-Malgrange", "population_totale": 8595.0, "pop_le_5min": 7856.0, "pct_le_5min": 91.4, "pop_le_10min": 8595.0, "pct_le_10min": 100.0, "pop_le_15min": 8595.0, "pct_le_15min": 100.0 }, "geometry": { "type": "Polygon", "coordinates": [ [ [ 6.1914458, 48.6603776 ], [ 6.1930173, 48.6612995 ], [ 6.1943375, 48.6620741 ], [ 6.1947677, 48.6628728 ], [ 6.1952474, 48.6637634 ], [ 6.1954185, 48.664081 ], [ 6.1957717, 48.6647139 ], [ 6.1961345, 48.6653602 ], [ 6.1962338, 48.665537 ], [ 6.1961227, 48.6655639 ], [ 6.1963737, 48.6660268 ], [ 6.1963973, 48.6660704 ], [ 6.1966069, 48.666418 ], [ 6.1969256, 48.6669098 ], [ 6.1958415, 48.6694647 ], [ 6.195387, 48.6697866 ], [ 6.1955942, 48.6700538 ], [ 6.1949176, 48.6716571 ], [ 6.1946079, 48.6718407 ], [ 6.1942356, 48.6720614 ], [ 6.1944154, 48.6721648 ], [ 6.1951637, 48.6729173 ], [ 6.1954597, 48.6731374 ], [ 6.195449, 48.6733161 ], [ 6.1960593, 48.6737394 ], [ 6.1962209, 48.6737404 ], [ 6.1962616, 48.6738193 ], [ 6.1962669, 48.6738296 ], [ 6.1971929, 48.6744108 ], [ 6.197232, 48.6745359 ], [ 6.1973614, 48.6745639 ], [ 6.1983623, 48.6750388 ], [ 6.1986375, 48.6750522 ], [ 6.1999178, 48.6753425 ], [ 6.1998474, 48.6757598 ], [ 6.2001125, 48.6758967 ], [ 6.2003171, 48.6759196 ], [ 6.2006774, 48.6759229 ], [ 6.201557, 48.6763794 ], [ 6.2018719, 48.6766213 ], [ 6.2022324, 48.6766856 ], [ 6.2028795, 48.676801 ], [ 6.2034491, 48.6762565 ], [ 6.204849, 48.6754374 ], [ 6.2077502, 48.6742236 ], [ 6.2084369, 48.6740544 ], [ 6.2097526, 48.673854 ], [ 6.2100688, 48.6737654 ], [ 6.2103438, 48.6735259 ], [ 6.2105957, 48.6734298 ], [ 6.212357, 48.6731688 ], [ 6.2126188, 48.6730888 ], [ 6.2126771, 48.6729786 ], [ 6.2127992, 48.6729602 ], [ 6.2133039, 48.6727546 ], [ 6.2134583, 48.6727386 ], [ 6.2139626, 48.6728032 ], [ 6.2142196, 48.6727944 ], [ 6.2143526, 48.6727792 ], [ 6.2144258, 48.672823 ], [ 6.214471, 48.6731983 ], [ 6.21439, 48.673329 ], [ 6.2143886, 48.6736562 ], [ 6.2144477, 48.6738639 ], [ 6.214574, 48.6739698 ], [ 6.2147517, 48.6740455 ], [ 6.2150627, 48.674042 ], [ 6.2169613, 48.6738812 ], [ 6.2184654, 48.673549 ], [ 6.2199336, 48.6731007 ], [ 6.2197208, 48.6727809 ], [ 6.2188182, 48.6719442 ], [ 6.218772, 48.6714196 ], [ 6.2174911, 48.6711007 ], [ 6.2185881, 48.6701602 ], [ 6.2182056, 48.6697289 ], [ 6.216927, 48.6694383 ], [ 6.2168293, 48.6695625 ], [ 6.2156484, 48.6689415 ], [ 6.2164632, 48.6681268 ], [ 6.2156081, 48.6672373 ], [ 6.2137633, 48.6679235 ], [ 6.2133945, 48.6675679 ], [ 6.2130513, 48.6672173 ], [ 6.2128867, 48.6669737 ], [ 6.2126751, 48.666668 ], [ 6.2129263, 48.6665848 ], [ 6.2127081, 48.6657106 ], [ 6.2125933, 48.6657536 ], [ 6.2125271, 48.6657309 ], [ 6.2114913, 48.666008 ], [ 6.2113833, 48.6659299 ], [ 6.2096365, 48.6667289 ], [ 6.2084195, 48.6656398 ], [ 6.2090857, 48.6651656 ], [ 6.2110593, 48.6643162 ], [ 6.211449, 48.6642887 ], [ 6.2114227, 48.6641581 ], [ 6.2121073, 48.663989 ], [ 6.2128498, 48.6638748 ], [ 6.2136227, 48.6633222 ], [ 6.2144296, 48.6624109 ], [ 6.2139579, 48.6621389 ], [ 6.2136757, 48.6619852 ], [ 6.2117779, 48.6611311 ], [ 6.2125362, 48.6600458 ], [ 6.2112003, 48.6596362 ], [ 6.2118971, 48.6583824 ], [ 6.2047535, 48.6588568 ], [ 6.2042175, 48.659003 ], [ 6.2040643, 48.6591042 ], [ 6.2021594, 48.6595921 ], [ 6.19735, 48.6599955 ], [ 6.1970084, 48.6600196 ], [ 6.1965054, 48.6601078 ], [ 6.1960357, 48.6602802 ], [ 6.1950994, 48.660248 ], [ 6.1950442, 48.6610604 ], [ 6.1948076, 48.6609156 ], [ 6.194647, 48.660921 ], [ 6.194585, 48.6609516 ], [ 6.1942664, 48.660678 ], [ 6.1914458, 48.6603776 ] ] ] } },
{ "type": "Feature", "properties": { "code_insee": "54300", "name": "Laneuveville-devant-Nancy", "population_totale": 6544.5, "pop_le_5min": 5482.0, "pct_le_5min": 83.76, "pop_le_10min": 6232.0, "pct_le_10min": 95.22, "pop_le_15min": 6236.0, "pct_le_15min": 95.29 }, "geometry": { "type": "Polygon", "coordinates": [ [ [ 6.2118971, 48.6583824 ], [ 6.2112003, 48.6596362 ], [ 6.2125362, 48.6600458 ], [ 6.2117779, 48.6611311 ], [ 6.2136757, 48.6619852 ], [ 6.2139579, 48.6621389 ], [ 6.2144296, 48.6624109 ], [ 6.2136227, 48.6633222 ], [ 6.2128498, 48.6638748 ], [ 6.2121073, 48.663989 ], [ 6.2114227, 48.6641581 ], [ 6.211449, 48.6642887 ], [ 6.2110593, 48.6643162 ], [ 6.2090857, 48.6651656 ], [ 6.2084195, 48.6656398 ], [ 6.2096365, 48.6667289 ], [ 6.2113833, 48.6659299 ], [ 6.2114913, 48.666008 ], [ 6.2125271, 48.6657309 ], [ 6.2125933, 48.6657536 ], [ 6.2127081, 48.6657106 ], [ 6.2129263, 48.6665848 ], [ 6.2126751, 48.666668 ], [ 6.2128867, 48.6669737 ], [ 6.2130513, 48.6672173 ], [ 6.2133945, 48.6675679 ], [ 6.2137633, 48.6679235 ], [ 6.2156081, 48.6672373 ], [ 6.2164632, 48.6681268 ], [ 6.2156484, 48.6689415 ], [ 6.2168293, 48.6695625 ], [ 6.216927, 48.6694383 ], [ 6.2182056, 48.6697289 ], [ 6.2185881, 48.6701602 ], [ 6.2174911, 48.6711007 ], [ 6.218772, 48.6714196 ], [ 6.2188182, 48.6719442 ], [ 6.2197208, 48.6727809 ], [ 6.2199336, 48.6731007 ], [ 6.2211165, 48.6728621 ], [ 6.2232354, 48.6722209 ], [ 6.2237376, 48.671909 ], [ 6.2239902, 48.6715309 ], [ 6.2241242, 48.6709991 ], [ 6.2252495, 48.6689704 ], [ 6.2267578, 48.6680053 ], [ 6.2283711, 48.6677301 ], [ 6.2304928, 48.6670991 ], [ 6.2313826, 48.6663919 ], [ 6.2315105, 48.6660661 ], [ 6.2312764, 48.665685 ], [ 6.2301174, 48.6652341 ], [ 6.2294705, 48.6647995 ], [ 6.2291213, 48.6642531 ], [ 6.2285333, 48.663918 ], [ 6.2284666, 48.662736 ], [ 6.2289533, 48.6617719 ], [ 6.2296941, 48.6611206 ], [ 6.2308236, 48.6605405 ], [ 6.2325507, 48.6600922 ], [ 6.2338378, 48.6598958 ], [ 6.2356163, 48.6601055 ], [ 6.2374093, 48.6605008 ], [ 6.2382538, 48.6605226 ], [ 6.2411861, 48.6611155 ], [ 6.2443304, 48.6614812 ], [ 6.2456307, 48.6614534 ], [ 6.2454852, 48.6609001 ], [ 6.243494, 48.660258 ], [ 6.2419854, 48.6595823 ], [ 6.2426453, 48.6592044 ], [ 6.2423746, 48.6580294 ], [ 6.2418612, 48.6579963 ], [ 6.241855, 48.6575905 ], [ 6.2445931, 48.6566843 ], [ 6.2451775, 48.6566473 ], [ 6.2454736, 48.6555374 ], [ 6.2446388, 48.6553123 ], [ 6.2443676, 48.6544588 ], [ 6.2447586, 48.6535826 ], [ 6.2460479, 48.6524385 ], [ 6.2480834, 48.6513703 ], [ 6.2487058, 48.6508413 ], [ 6.2484932, 48.6504088 ], [ 6.2507475, 48.6488762 ], [ 6.2520396, 48.6487471 ], [ 6.2525971, 48.648694 ], [ 6.253752, 48.6490941 ], [ 6.2548113, 48.6499035 ], [ 6.2589941, 48.6498438 ], [ 6.2601834, 48.6490583 ], [ 6.2609359, 48.6482372 ], [ 6.2620531, 48.6488076 ], [ 6.2640267, 48.6476059 ], [ 6.2647675, 48.6479356 ], [ 6.2652066, 48.6467023 ], [ 6.2665514, 48.6456237 ], [ 6.2690923, 48.6454682 ], [ 6.2745133, 48.6416937 ], [ 6.2773627, 48.6402752 ], [ 6.2788181, 48.6397626 ], [ 6.2815442, 48.6376262 ], [ 6.2837243, 48.6371106 ], [ 6.285848, 48.6368506 ], [ 6.2858214, 48.6368031 ], [ 6.2855507, 48.6363196 ], [ 6.2850912, 48.6359972 ], [ 6.2850849, 48.6358474 ], [ 6.2850779, 48.6356825 ], [ 6.285062, 48.6353045 ], [ 6.2825329, 48.6339882 ], [ 6.2819625, 48.6329083 ], [ 6.2812032, 48.632021 ], [ 6.2811351, 48.631482 ], [ 6.2816899, 48.6310736 ], [ 6.2708955, 48.6275398 ], [ 6.2680667, 48.6311568 ], [ 6.2627789, 48.6294787 ], [ 6.2608917, 48.63242 ], [ 6.2575465, 48.6324002 ], [ 6.2544393, 48.6328119 ], [ 6.2543576, 48.6328505 ], [ 6.2541686, 48.6329397 ], [ 6.2531841, 48.6327537 ], [ 6.2532839, 48.6320735 ], [ 6.2514127, 48.6316474 ], [ 6.2510528, 48.6325903 ], [ 6.2449333, 48.6310415 ], [ 6.2434182, 48.6309245 ], [ 6.2427022, 48.6338421 ], [ 6.2427326, 48.6342302 ], [ 6.2420932, 48.6345398 ], [ 6.2408241, 48.6336529 ], [ 6.237793, 48.6330803 ], [ 6.2376928, 48.631798 ], [ 6.2331125, 48.6316507 ], [ 6.2308045, 48.6315099 ], [ 6.229048, 48.6315701 ], [ 6.2307145, 48.6336277 ], [ 6.2317209, 48.6354034 ], [ 6.2318337, 48.6361947 ], [ 6.2316063, 48.6368792 ], [ 6.2304155, 48.6366663 ], [ 6.2305477, 48.6360696 ], [ 6.226909, 48.6358898 ], [ 6.2271048, 48.6348003 ], [ 6.2235611, 48.6348539 ], [ 6.2231991, 48.6341389 ], [ 6.2188686, 48.6345788 ], [ 6.2176963, 48.6363202 ], [ 6.218634, 48.6365449 ], [ 6.2174765, 48.6378525 ], [ 6.2190778, 48.638825 ], [ 6.218023, 48.6402092 ], [ 6.216054, 48.6416728 ], [ 6.2164958, 48.642059 ], [ 6.2159726, 48.6424942 ], [ 6.2188633, 48.644161 ], [ 6.2203102, 48.6456363 ], [ 6.2198637, 48.6458121 ], [ 6.2195106, 48.6456315 ], [ 6.2189433, 48.6458114 ], [ 6.219554, 48.6471227 ], [ 6.2162227, 48.6477876 ], [ 6.2147918, 48.6478161 ], [ 6.2147298, 48.6480373 ], [ 6.2142999, 48.6498123 ], [ 6.2131506, 48.651464 ], [ 6.2141399, 48.653755 ], [ 6.2129621, 48.6558242 ], [ 6.2118971, 48.6583824 ] ] ] } },
{ "type": "Feature", "properties": { "code_insee": "54304", "name": "Laxou", "population_totale": 12688.5, "pop_le_5min": 12031.0, "pct_le_5min": 94.82, "pop_le_10min": 12669.5, "pct_le_10min": 99.85, "pop_le_15min": 12669.5, "pct_le_15min": 99.85 }, "geometry": { "type": "Polygon", "coordinates": [ [ [ 6.0741196, 48.6926416 ], [ 6.0761424, 48.6930867 ], [ 6.0773823, 48.6933175 ], [ 6.1066363, 48.6943517 ], [ 6.1065075, 48.6946625 ], [ 6.1062223, 48.6953511 ], [ 6.1062325, 48.6958715 ], [ 6.1066203, 48.6962866 ], [ 6.1075284, 48.695979 ], [ 6.1086362, 48.6958342 ], [ 6.1095328, 48.6958238 ], [ 6.1097232, 48.6958532 ], [ 6.1114431, 48.6961191 ], [ 6.1118396, 48.6962757 ], [ 6.1137813, 48.6966009 ], [ 6.1144661, 48.6969484 ], [ 6.1159265, 48.6969192 ], [ 6.1181285, 48.6975249 ], [ 6.1197817, 48.6983456 ], [ 6.120248, 48.6980408 ], [ 6.1215996, 48.6991106 ], [ 6.1226744, 48.6990672 ], [ 6.1289464, 48.6994716 ], [ 6.1303027, 48.6998352 ], [ 6.1313274, 48.7001408 ], [ 6.1318699, 48.7002379 ], [ 6.1332979, 48.7004074 ], [ 6.13458, 48.7005245 ], [ 6.1351447, 48.700452 ], [ 6.1358033, 48.7005515 ], [ 6.136592, 48.7006706 ], [ 6.136686, 48.7004489 ], [ 6.1367871, 48.7003406 ], [ 6.1368429, 48.7002571 ], [ 6.137018, 48.6997668 ], [ 6.1371071, 48.6995272 ], [ 6.1371792, 48.6993396 ], [ 6.1372572, 48.6990274 ], [ 6.1373655, 48.6985982 ], [ 6.1374813, 48.698141 ], [ 6.1376015, 48.6975572 ], [ 6.1377004, 48.6970303 ], [ 6.1377473, 48.6967014 ], [ 6.1378599, 48.6958329 ], [ 6.1379249, 48.6953076 ], [ 6.1380248, 48.6949372 ], [ 6.1380578, 48.6948146 ], [ 6.138031, 48.6945328 ], [ 6.1381012, 48.6934833 ], [ 6.138306, 48.6922757 ], [ 6.1342142, 48.6921142 ], [ 6.1348191, 48.6894455 ], [ 6.1350003, 48.6893547 ], [ 6.1357227, 48.6896622 ], [ 6.137313, 48.690326 ], [ 6.1383307, 48.6906168 ], [ 6.1385304, 48.6907798 ], [ 6.138554, 48.6910292 ], [ 6.1386425, 48.6906962 ], [ 6.1387417, 48.690131 ], [ 6.1387884, 48.6900384 ], [ 6.1388295, 48.6899643 ], [ 6.1386984, 48.6886799 ], [ 6.1392663, 48.6885814 ], [ 6.1393225, 48.6887286 ], [ 6.139724, 48.6886787 ], [ 6.1399918, 48.6887128 ], [ 6.1407284, 48.6886617 ], [ 6.1409574, 48.6885811 ], [ 6.1415156, 48.6885525 ], [ 6.1415222, 48.688443 ], [ 6.1417685, 48.6883917 ], [ 6.1420559, 48.6883556 ], [ 6.1421042, 48.6882678 ], [ 6.1424969, 48.6881686 ], [ 6.1438577, 48.6879706 ], [ 6.1444219, 48.687955 ], [ 6.144436, 48.6880738 ], [ 6.1451744, 48.6880458 ], [ 6.1452315, 48.6880074 ], [ 6.1455759, 48.6880622 ], [ 6.1459754, 48.6880521 ], [ 6.1461661, 48.6881252 ], [ 6.1461413, 48.6883248 ], [ 6.1466864, 48.6884523 ], [ 6.1469097, 48.6884516 ], [ 6.1475118, 48.6886579 ], [ 6.1472542, 48.6891214 ], [ 6.147934, 48.689445 ], [ 6.1480019, 48.6894084 ], [ 6.1486562, 48.6896454 ], [ 6.1487413, 48.6895864 ], [ 6.1489835, 48.6897343 ], [ 6.1492327, 48.6897884 ], [ 6.1500653, 48.6898291 ], [ 6.1500973, 48.6901868 ], [ 6.1504019, 48.6905237 ], [ 6.1503014, 48.6906511 ], [ 6.1517556, 48.6912319 ], [ 6.1527134, 48.6910295 ], [ 6.1528834, 48.6901964 ], [ 6.1531732, 48.6897342 ], [ 6.1536175, 48.6898242 ], [ 6.1544181, 48.6891223 ], [ 6.1544925, 48.6890455 ], [ 6.1545928, 48.6889066 ], [ 6.1547886, 48.6886258 ], [ 6.1548616, 48.6886199 ], [ 6.1550801, 48.6886923 ], [ 6.1552992, 48.6887148 ], [ 6.1553409, 48.6886539 ], [ 6.1554512, 48.6884932 ], [ 6.1555723, 48.6883406 ], [ 6.1555922, 48.688316 ], [ 6.1557386, 48.6881394 ], [ 6.1557786, 48.6880922 ], [ 6.155797, 48.6880709 ], [ 6.1558304, 48.6880327 ], [ 6.1558432, 48.6880182 ], [ 6.1558972, 48.6879574 ], [ 6.1560335, 48.6878004 ], [ 6.1560808, 48.687746 ], [ 6.1561493, 48.687664 ], [ 6.1562188, 48.6876041 ], [ 6.1563046, 48.6874889 ], [ 6.1563871, 48.6874207 ], [ 6.156867, 48.6875402 ], [ 6.1572242, 48.6868814 ], [ 6.1574264, 48.6865357 ], [ 6.158494, 48.6846941 ], [ 6.1591278, 48.6834341 ], [ 6.159231, 48.6834275 ], [ 6.1596845, 48.6827664 ], [ 6.1600407, 48.6828636 ], [ 6.1600506, 48.6829319 ], [ 6.1605762, 48.6831483 ], [ 6.1612918, 48.6824034 ], [ 6.1626148, 48.680173 ], [ 6.1618948, 48.6796349 ], [ 6.1617193, 48.6795031 ], [ 6.1616054, 48.6794189 ], [ 6.1613089, 48.6791997 ], [ 6.1605902, 48.6784821 ], [ 6.1595793, 48.6780061 ], [ 6.1591851, 48.6778786 ], [ 6.1578823, 48.6775229 ], [ 6.15642, 48.6772229 ], [ 6.1563205, 48.677328 ], [ 6.1554634, 48.6784776 ], [ 6.154821, 48.67943 ], [ 6.1548976, 48.6804361 ], [ 6.1548047, 48.680438 ], [ 6.1546059, 48.680378 ], [ 6.1539216, 48.6800521 ], [ 6.1537891, 48.6800478 ], [ 6.1538498, 48.679873 ], [ 6.1533717, 48.6794785 ], [ 6.1532724, 48.6793987 ], [ 6.1531749, 48.6793106 ], [ 6.1529572, 48.6791557 ], [ 6.152787, 48.6790377 ], [ 6.1526499, 48.6789217 ], [ 6.152546, 48.6787574 ], [ 6.1524445, 48.6787085 ], [ 6.1524108, 48.678674 ], [ 6.1521856, 48.6785165 ], [ 6.152004, 48.6784922 ], [ 6.1518924, 48.6783998 ], [ 6.1517071, 48.6783825 ], [ 6.1515288, 48.6783265 ], [ 6.151456, 48.6783213 ], [ 6.1512468, 48.6783222 ], [ 6.1511262, 48.6783947 ], [ 6.1510524, 48.6784216 ], [ 6.1508407, 48.6783952 ], [ 6.1506311, 48.6783434 ], [ 6.1506423, 48.6783196 ], [ 6.1506233, 48.6781189 ], [ 6.1505587, 48.6780165 ], [ 6.1504912, 48.6779851 ], [ 6.1503528, 48.6780344 ], [ 6.1501867, 48.6780504 ], [ 6.1500512, 48.6779468 ], [ 6.1499511, 48.6779153 ], [ 6.1498429, 48.6778671 ], [ 6.1497935, 48.6778626 ], [ 6.1497005, 48.6778692 ], [ 6.149559, 48.6778585 ], [ 6.1495125, 48.6778448 ], [ 6.1494636, 48.6777647 ], [ 6.1492949, 48.6777253 ], [ 6.1489745, 48.6775876 ], [ 6.1489244, 48.6774937 ], [ 6.1489611, 48.6774359 ], [ 6.1487717, 48.6774162 ], [ 6.1485146, 48.6770827 ], [ 6.1485759, 48.6768818 ], [ 6.1485402, 48.6767815 ], [ 6.1484923, 48.6767684 ], [ 6.1483257, 48.6767738 ], [ 6.1482669, 48.6768252 ], [ 6.1483415, 48.6769028 ], [ 6.1483141, 48.6769752 ], [ 6.1481707, 48.6769059 ], [ 6.1481502, 48.6768465 ], [ 6.1479, 48.6766428 ], [ 6.1478461, 48.6764974 ], [ 6.1476665, 48.6763416 ], [ 6.1475333, 48.6762826 ], [ 6.1473293, 48.6762742 ], [ 6.1472979, 48.6762814 ], [ 6.1469942, 48.6762698 ], [ 6.1469537, 48.6762683 ], [ 6.1467855, 48.6762076 ], [ 6.1464724, 48.6761683 ], [ 6.1464393, 48.6760373 ], [ 6.1461727, 48.6760189 ], [ 6.1459084, 48.6760192 ], [ 6.1458195, 48.6760474 ], [ 6.1457426, 48.676015 ], [ 6.1456689, 48.6760155 ], [ 6.1455545, 48.6759369 ], [ 6.1453914, 48.6759021 ], [ 6.1453346, 48.6758824 ], [ 6.1452625, 48.6758786 ], [ 6.1452398, 48.6758495 ], [ 6.1451949, 48.675843 ], [ 6.1450344, 48.6760339 ], [ 6.1442021, 48.6758435 ], [ 6.1441079, 48.675812 ], [ 6.14382, 48.6757589 ], [ 6.1437091, 48.6757188 ], [ 6.142872, 48.6755533 ], [ 6.142548, 48.6754437 ], [ 6.1422962, 48.6753685 ], [ 6.1418928, 48.6752095 ], [ 6.1410852, 48.6757983 ], [ 6.1413089, 48.6759431 ], [ 6.1412968, 48.6759458 ], [ 6.1406414, 48.6764239 ], [ 6.1396017, 48.677222 ], [ 6.1383192, 48.6766262 ], [ 6.1377317, 48.6761765 ], [ 6.1373968, 48.6758328 ], [ 6.1373438, 48.6758308 ], [ 6.1373073, 48.67569 ], [ 6.1372737, 48.6757012 ], [ 6.1370034, 48.6755063 ], [ 6.1366591, 48.6752852 ], [ 6.1364888, 48.6753138 ], [ 6.1350762, 48.6749009 ], [ 6.1349905, 48.6742188 ], [ 6.135176, 48.6740772 ], [ 6.1351083, 48.6733933 ], [ 6.1347888, 48.6727619 ], [ 6.1346504, 48.6721331 ], [ 6.1347545, 48.6712708 ], [ 6.1347558, 48.6712601 ], [ 6.1348248, 48.670689 ], [ 6.1346059, 48.6701913 ], [ 6.1335068, 48.6691665 ], [ 6.1324735, 48.6679332 ], [ 6.1322704, 48.6672206 ], [ 6.1315974, 48.6674291 ], [ 6.1307621, 48.6674383 ], [ 6.1304955, 48.6674412 ], [ 6.1298833, 48.6674492 ], [ 6.1237108, 48.6674096 ], [ 6.1228579, 48.6674071 ], [ 6.1209685, 48.6674172 ], [ 6.1197963, 48.6674882 ], [ 6.1191796, 48.6675255 ], [ 6.1184046, 48.6675272 ], [ 6.1167177, 48.6674925 ], [ 6.1148039, 48.6675648 ], [ 6.1136971, 48.6675194 ], [ 6.1113545, 48.6675323 ], [ 6.1113284, 48.6674467 ], [ 6.1066846, 48.6674986 ], [ 6.1020883, 48.6675578 ], [ 6.0965771, 48.6675588 ], [ 6.0929369, 48.6675537 ], [ 6.0922533, 48.6675504 ], [ 6.0905309, 48.6675235 ], [ 6.088342, 48.6674985 ], [ 6.0874274, 48.6674805 ], [ 6.0859844, 48.667452 ], [ 6.0854786, 48.667442 ], [ 6.0827863, 48.6673783 ], [ 6.082575, 48.6673725 ], [ 6.0807307, 48.667322 ], [ 6.0804216, 48.6673345 ], [ 6.0803809, 48.6675021 ], [ 6.0802404, 48.6679724 ], [ 6.079624, 48.6700353 ], [ 6.0794568, 48.6706505 ], [ 6.0789015, 48.672574 ], [ 6.0787484, 48.6732001 ], [ 6.0770531, 48.6797849 ], [ 6.0761417, 48.6834845 ], [ 6.0741196, 48.6926416 ] ] ] } },
{ "type": "Feature", "properties": { "code_insee": "54328", "name": "Ludres", "population_totale": 5894.5, "pop_le_5min": 5403.5, "pct_le_5min": 91.67, "pop_le_10min": 5856.5, "pct_le_10min": 99.36, "pop_le_15min": 5891.5, "pct_le_15min": 99.95 }, "geometry": { "type": "Polygon", "coordinates": [ [ [ 6.1478468, 48.6274801 ], [ 6.1465509, 48.6279258 ], [ 6.1459538, 48.6283413 ], [ 6.1456856, 48.6288419 ], [ 6.1460264, 48.6295038 ], [ 6.1467893, 48.630205 ], [ 6.1482915, 48.6310845 ], [ 6.1498854, 48.6318967 ], [ 6.1521009, 48.6334575 ], [ 6.1525025, 48.6339032 ], [ 6.152559, 48.6339659 ], [ 6.1528388, 48.6346726 ], [ 6.1528908, 48.6351969 ], [ 6.1638245, 48.6380089 ], [ 6.1646625, 48.6368002 ], [ 6.1646609, 48.6367346 ], [ 6.1646329, 48.6355782 ], [ 6.1648844, 48.6344637 ], [ 6.1654573, 48.6337744 ], [ 6.1673997, 48.6346235 ], [ 6.1686653, 48.6343894 ], [ 6.169614, 48.6339961 ], [ 6.1697826, 48.6337222 ], [ 6.1701462, 48.6336163 ], [ 6.1704683, 48.6336581 ], [ 6.1714322, 48.6337035 ], [ 6.1729999, 48.6337965 ], [ 6.1758145, 48.6345096 ], [ 6.1761931, 48.6329654 ], [ 6.1759313, 48.630188 ], [ 6.1763593, 48.6301203 ], [ 6.1765743, 48.6299961 ], [ 6.1774655, 48.6299022 ], [ 6.1776621, 48.6297466 ], [ 6.1784655, 48.629762 ], [ 6.1800067, 48.6304011 ], [ 6.1800946, 48.6302918 ], [ 6.1805258, 48.6302666 ], [ 6.1839546, 48.6289416 ], [ 6.1842869, 48.6290693 ], [ 6.1856687, 48.6273337 ], [ 6.1859067, 48.6272829 ], [ 6.1868392, 48.6262039 ], [ 6.1862397, 48.625957 ], [ 6.187319, 48.6251081 ], [ 6.1876766, 48.6245188 ], [ 6.1873587, 48.6243693 ], [ 6.187663, 48.6241345 ], [ 6.1876846, 48.623578 ], [ 6.1879699, 48.6235149 ], [ 6.189027, 48.6215445 ], [ 6.1904603, 48.6204805 ], [ 6.1900571, 48.6202697 ], [ 6.1904216, 48.6199794 ], [ 6.1912906, 48.6203775 ], [ 6.1929254, 48.6196272 ], [ 6.1931773, 48.6197576 ], [ 6.1944241, 48.6179517 ], [ 6.1961911, 48.6178703 ], [ 6.1983266, 48.617135 ], [ 6.2001644, 48.6167198 ], [ 6.2001574, 48.6164208 ], [ 6.2006694, 48.6163713 ], [ 6.2026366, 48.6163792 ], [ 6.2026793, 48.6148493 ], [ 6.2023858, 48.6148058 ], [ 6.2005765, 48.6137131 ], [ 6.1969802, 48.6122322 ], [ 6.1969094, 48.6117322 ], [ 6.1964011, 48.6116213 ], [ 6.1976452, 48.6097833 ], [ 6.1979168, 48.6097527 ], [ 6.1985899, 48.608661 ], [ 6.1997452, 48.6088034 ], [ 6.201861, 48.6088597 ], [ 6.2026499, 48.6090573 ], [ 6.2039689, 48.6086062 ], [ 6.2045586, 48.6081051 ], [ 6.1997254, 48.6064634 ], [ 6.1970537, 48.6060946 ], [ 6.1958375, 48.6055802 ], [ 6.1951434, 48.6057748 ], [ 6.1925081, 48.6046245 ], [ 6.1920481, 48.6049287 ], [ 6.1907356, 48.6067154 ], [ 6.1836017, 48.6070001 ], [ 6.1829415, 48.6067981 ], [ 6.1819053, 48.606737 ], [ 6.1792462, 48.6061109 ], [ 6.1783351, 48.6068364 ], [ 6.1763572, 48.6075233 ], [ 6.1753931, 48.6084002 ], [ 6.1750839, 48.608571 ], [ 6.1737734, 48.6089252 ], [ 6.1738095, 48.6095383 ], [ 6.1738155, 48.6096827 ], [ 6.1741868, 48.6107389 ], [ 6.1724746, 48.6106899 ], [ 6.1722882, 48.6107817 ], [ 6.1700558, 48.6106754 ], [ 6.1689964, 48.6107325 ], [ 6.1681078, 48.6104953 ], [ 6.1668357, 48.6113505 ], [ 6.1612455, 48.6132811 ], [ 6.1606605, 48.613429 ], [ 6.1602485, 48.6137315 ], [ 6.1590963, 48.6142619 ], [ 6.1588755, 48.6145366 ], [ 6.1589, 48.6148564 ], [ 6.1590869, 48.6151921 ], [ 6.1561895, 48.6144025 ], [ 6.1554493, 48.615261 ], [ 6.1559367, 48.6155225 ], [ 6.1527382, 48.6173294 ], [ 6.1510143, 48.6162865 ], [ 6.150099, 48.6167554 ], [ 6.1505963, 48.6171449 ], [ 6.1503496, 48.6172921 ], [ 6.1504937, 48.6174903 ], [ 6.149344, 48.6182664 ], [ 6.1507022, 48.6193751 ], [ 6.1517478, 48.6206118 ], [ 6.1513635, 48.6206461 ], [ 6.1515713, 48.6210453 ], [ 6.1515547, 48.6212489 ], [ 6.1518415, 48.6218378 ], [ 6.151844, 48.6227141 ], [ 6.1513887, 48.6232959 ], [ 6.1508088, 48.6247796 ], [ 6.1502861, 48.6255346 ], [ 6.1501896, 48.6263822 ], [ 6.1489866, 48.6270959 ], [ 6.1488384, 48.6271464 ], [ 6.1478468, 48.6274801 ] ] ] } },
{ "type": "Feature", "properties": { "code_insee": "54339", "name": "Malzéville", "population_totale": 7580.0, "pop_le_5min": 7064.5, "pct_le_5min": 93.2, "pop_le_10min": 7531.5, "pct_le_10min": 99.36, "pop_le_15min": 7580.0, "pct_le_15min": 100.0 }, "geometry": { "type": "Polygon", "coordinates": [ [ [ 6.1751799, 48.7221085 ], [ 6.1746884, 48.7235999 ], [ 6.1745312, 48.7245194 ], [ 6.1748586, 48.7255441 ], [ 6.1761716, 48.7274815 ], [ 6.1762412, 48.7284241 ], [ 6.1759037, 48.72938 ], [ 6.1746829, 48.7310843 ], [ 6.1737181, 48.7318345 ], [ 6.1730634, 48.7321805 ], [ 6.1722657, 48.7324312 ], [ 6.1714366, 48.7331779 ], [ 6.1708855, 48.7340056 ], [ 6.1706986, 48.734714 ], [ 6.1708562, 48.735318 ], [ 6.171307, 48.7361957 ], [ 6.1719302, 48.7368975 ], [ 6.1730329, 48.7380308 ], [ 6.1749034, 48.7394102 ], [ 6.1760858, 48.7404969 ], [ 6.1773859, 48.7415002 ], [ 6.1777465, 48.7416939 ], [ 6.1780308, 48.7413261 ], [ 6.177948, 48.7410096 ], [ 6.1778569, 48.7409292 ], [ 6.1782359, 48.740467 ], [ 6.1784773, 48.7402192 ], [ 6.1786581, 48.7399209 ], [ 6.1801116, 48.7399692 ], [ 6.1814829, 48.739833 ], [ 6.1815211, 48.7397418 ], [ 6.1834693, 48.7390093 ], [ 6.1834725, 48.7389043 ], [ 6.1849269, 48.7385256 ], [ 6.1863086, 48.7382316 ], [ 6.1862649, 48.7381058 ], [ 6.1864908, 48.7380981 ], [ 6.1866325, 48.7380259 ], [ 6.1868804, 48.73801 ], [ 6.1872462, 48.7379078 ], [ 6.1877059, 48.7378473 ], [ 6.1879796, 48.7377256 ], [ 6.1880133, 48.7375747 ], [ 6.1878459, 48.7374605 ], [ 6.1878434, 48.7369886 ], [ 6.1879514, 48.7367752 ], [ 6.1876376, 48.7362315 ], [ 6.1879174, 48.7360422 ], [ 6.1916714, 48.7352334 ], [ 6.1922023, 48.7352154 ], [ 6.2015336, 48.7290783 ], [ 6.2148978, 48.7241588 ], [ 6.2148216, 48.7240867 ], [ 6.2065101, 48.7162256 ], [ 6.2053726, 48.7159316 ], [ 6.2046847, 48.7155163 ], [ 6.2039842, 48.7148459 ], [ 6.203965, 48.7146923 ], [ 6.2037748, 48.7143999 ], [ 6.2037183, 48.7137654 ], [ 6.2035249, 48.7137141 ], [ 6.2033205, 48.713615 ], [ 6.2027005, 48.7138868 ], [ 6.20209, 48.7143752 ], [ 6.2016708, 48.7142303 ], [ 6.2006332, 48.7133448 ], [ 6.200778, 48.7132386 ], [ 6.2003463, 48.7128387 ], [ 6.1999612, 48.7122877 ], [ 6.2011868, 48.7114651 ], [ 6.2016762, 48.7108752 ], [ 6.2010707, 48.710764 ], [ 6.2032331, 48.7074025 ], [ 6.201286, 48.7067462 ], [ 6.2009626, 48.7066457 ], [ 6.2000237, 48.706382 ], [ 6.198414, 48.7060231 ], [ 6.1987518, 48.7053166 ], [ 6.1964204, 48.7047122 ], [ 6.1953777, 48.704583 ], [ 6.194967, 48.7046137 ], [ 6.1942341, 48.7047211 ], [ 6.1936566, 48.7039662 ], [ 6.1922396, 48.7030139 ], [ 6.1905215, 48.7039831 ], [ 6.188566, 48.7049736 ], [ 6.1871083, 48.7053476 ], [ 6.1864579, 48.705416 ], [ 6.1852855, 48.7054656 ], [ 6.1841671, 48.705371 ], [ 6.1839216, 48.7053031 ], [ 6.1838486, 48.7053121 ], [ 6.1837728, 48.7053214 ], [ 6.1835168, 48.7053764 ], [ 6.1832409, 48.7054984 ], [ 6.1826886, 48.7058649 ], [ 6.1810554, 48.7073418 ], [ 6.1800125, 48.708558 ], [ 6.1792725, 48.7097182 ], [ 6.1785701, 48.7107382 ], [ 6.1782466, 48.7110938 ], [ 6.1752964, 48.7130586 ], [ 6.1744629, 48.713701 ], [ 6.1741695, 48.7141529 ], [ 6.1735293, 48.7153955 ], [ 6.1734507, 48.7156978 ], [ 6.1734796, 48.7165134 ], [ 6.1738418, 48.7182766 ], [ 6.1740402, 48.7187943 ], [ 6.1746617, 48.7195149 ], [ 6.1751467, 48.7202252 ], [ 6.1754604, 48.7208065 ], [ 6.1754716, 48.7211881 ], [ 6.1753931, 48.7217466 ], [ 6.1751799, 48.7221085 ] ] ] } },
{ "type": "Feature", "properties": { "code_insee": "54357", "name": "Maxéville", "population_totale": 8315.5, "pop_le_5min": 7943.5, "pct_le_5min": 95.53, "pop_le_10min": 8249.0, "pct_le_10min": 99.2, "pop_le_15min": 8266.0, "pct_le_15min": 99.4 }, "geometry": { "type": "Polygon", "coordinates": [ [ [ 6.1066203, 48.6962866 ], [ 6.1067218, 48.6973383 ], [ 6.1067374, 48.6975537 ], [ 6.1068259, 48.6987748 ], [ 6.1091244, 48.6993317 ], [ 6.1097562, 48.6996266 ], [ 6.110858, 48.7004672 ], [ 6.1115977, 48.7006488 ], [ 6.1124147, 48.7006669 ], [ 6.1139067, 48.7006194 ], [ 6.1167344, 48.7006554 ], [ 6.1184081, 48.700827 ], [ 6.1193061, 48.7010234 ], [ 6.1233252, 48.702821 ], [ 6.1266568, 48.7046944 ], [ 6.1270323, 48.7049965 ], [ 6.1285287, 48.7059394 ], [ 6.129408, 48.7068103 ], [ 6.1312724, 48.7081375 ], [ 6.1314923, 48.7083554 ], [ 6.1332091, 48.7093354 ], [ 6.1339446, 48.7100777 ], [ 6.1346936, 48.7110427 ], [ 6.1349102, 48.7112158 ], [ 6.1348008, 48.7115792 ], [ 6.1350918, 48.7118399 ], [ 6.1372421, 48.7131659 ], [ 6.1382727, 48.7133129 ], [ 6.1410532, 48.7132148 ], [ 6.1427852, 48.7136542 ], [ 6.1451873, 48.714702 ], [ 6.1463701, 48.715069 ], [ 6.147526, 48.7150679 ], [ 6.1484954, 48.7153068 ], [ 6.1496928, 48.7158532 ], [ 6.1503415, 48.7163723 ], [ 6.1512431, 48.7166133 ], [ 6.1530978, 48.7168687 ], [ 6.1536603, 48.7171206 ], [ 6.1543233, 48.7176302 ], [ 6.1546342, 48.7181601 ], [ 6.1547449, 48.7187415 ], [ 6.1552396, 48.7189956 ], [ 6.1567538, 48.7192618 ], [ 6.1580573, 48.7193998 ], [ 6.1600511, 48.7196956 ], [ 6.1615503, 48.7214021 ], [ 6.1621312, 48.7216851 ], [ 6.1635253, 48.7223644 ], [ 6.1637288, 48.7223578 ], [ 6.1641665, 48.721668 ], [ 6.1643991, 48.7213013 ], [ 6.1650262, 48.7215061 ], [ 6.1672898, 48.7226929 ], [ 6.1682396, 48.7226623 ], [ 6.1689302, 48.7225353 ], [ 6.169441, 48.7224414 ], [ 6.1697828, 48.7223785 ], [ 6.171368, 48.7222349 ], [ 6.1724581, 48.7221915 ], [ 6.1736317, 48.722147 ], [ 6.1751799, 48.7221085 ], [ 6.1753931, 48.7217466 ], [ 6.1754716, 48.7211881 ], [ 6.1754604, 48.7208065 ], [ 6.1751467, 48.7202252 ], [ 6.1746617, 48.7195149 ], [ 6.1740402, 48.7187943 ], [ 6.1738418, 48.7182766 ], [ 6.1734796, 48.7165134 ], [ 6.1734507, 48.7156978 ], [ 6.1735293, 48.7153955 ], [ 6.1741695, 48.7141529 ], [ 6.1744629, 48.713701 ], [ 6.1752964, 48.7130586 ], [ 6.1782466, 48.7110938 ], [ 6.1785701, 48.7107382 ], [ 6.1792725, 48.7097182 ], [ 6.1800125, 48.708558 ], [ 6.1793176, 48.7082965 ], [ 6.1791279, 48.7084979 ], [ 6.1789338, 48.7087039 ], [ 6.1786656, 48.7089885 ], [ 6.1780609, 48.7092349 ], [ 6.1780182, 48.7092348 ], [ 6.1755165, 48.7073904 ], [ 6.175564, 48.7073484 ], [ 6.1752932, 48.707234 ], [ 6.1725925, 48.7068111 ], [ 6.1727632, 48.7065894 ], [ 6.1727238, 48.7065738 ], [ 6.172676, 48.706558 ], [ 6.172589, 48.70653 ], [ 6.172628, 48.706479 ], [ 6.1726333, 48.7064721 ], [ 6.172682, 48.706409 ], [ 6.172684, 48.706406 ], [ 6.1727047, 48.7063793 ], [ 6.1718744, 48.7061885 ], [ 6.1712521, 48.7060169 ], [ 6.1710071, 48.7059113 ], [ 6.1705875, 48.7057743 ], [ 6.1705256, 48.7058563 ], [ 6.170176, 48.7057579 ], [ 6.1695026, 48.7055198 ], [ 6.1687931, 48.7052569 ], [ 6.1690109, 48.7050646 ], [ 6.1688636, 48.7050116 ], [ 6.167088, 48.7046551 ], [ 6.1670183, 48.7046411 ], [ 6.1668728, 48.7047023 ], [ 6.1649734, 48.7044747 ], [ 6.1647223, 48.7050497 ], [ 6.1637305, 48.7053646 ], [ 6.1614748, 48.7051258 ], [ 6.1614805, 48.7048738 ], [ 6.1607977, 48.7047808 ], [ 6.16065, 48.7048412 ], [ 6.1602154, 48.705019 ], [ 6.1598023, 48.7053112 ], [ 6.1593285, 48.7054629 ], [ 6.1585673, 48.7055879 ], [ 6.1574847, 48.7056342 ], [ 6.1569489, 48.7057615 ], [ 6.1562533, 48.7058279 ], [ 6.1555224, 48.7060877 ], [ 6.1537087, 48.7061287 ], [ 6.1518934, 48.7064115 ], [ 6.1490516, 48.7065565 ], [ 6.1477033, 48.7054853 ], [ 6.1458436, 48.7048585 ], [ 6.1425123, 48.7035091 ], [ 6.1424169, 48.7035057 ], [ 6.1420549, 48.7034184 ], [ 6.1415748, 48.703292 ], [ 6.1415493, 48.70322 ], [ 6.1407154, 48.7029829 ], [ 6.1395037, 48.7028986 ], [ 6.1391124, 48.7027019 ], [ 6.1387331, 48.7024902 ], [ 6.1384068, 48.7023081 ], [ 6.1366551, 48.7007245 ], [ 6.136592, 48.7006706 ], [ 6.1358033, 48.7005515 ], [ 6.1351447, 48.700452 ], [ 6.13458, 48.7005245 ], [ 6.1332979, 48.7004074 ], [ 6.1318699, 48.7002379 ], [ 6.1313274, 48.7001408 ], [ 6.1303027, 48.6998352 ], [ 6.1289464, 48.6994716 ], [ 6.1226744, 48.6990672 ], [ 6.1215996, 48.6991106 ], [ 6.120248, 48.6980408 ], [ 6.1197817, 48.6983456 ], [ 6.1181285, 48.6975249 ], [ 6.1159265, 48.6969192 ], [ 6.1144661, 48.6969484 ], [ 6.1137813, 48.6966009 ], [ 6.1118396, 48.6962757 ], [ 6.1114431, 48.6961191 ], [ 6.1097232, 48.6958532 ], [ 6.1095328, 48.6958238 ], [ 6.1086362, 48.6958342 ], [ 6.1075284, 48.695979 ], [ 6.1066203, 48.6962866 ] ] ] } },
{ "type": "Feature", "properties": { "code_insee": "54395", "name": "Nancy", "population_totale": 80809.0, "pop_le_5min": 78324.0, "pct_le_5min": 96.92, "pop_le_10min": 80610.0, "pct_le_10min": 99.75, "pop_le_15min": 80809.0, "pct_le_15min": 100.0 }, "geometry": { "type": "Polygon", "coordinates": [ [ [ 6.136592, 48.7006706 ], [ 6.1366551, 48.7007245 ], [ 6.1384068, 48.7023081 ], [ 6.1387331, 48.7024902 ], [ 6.1391124, 48.7027019 ], [ 6.1395037, 48.7028986 ], [ 6.1407154, 48.7029829 ], [ 6.1415493, 48.70322 ], [ 6.1415748, 48.703292 ], [ 6.1420549, 48.7034184 ], [ 6.1424169, 48.7035057 ], [ 6.1425123, 48.7035091 ], [ 6.1458436, 48.7048585 ], [ 6.1477033, 48.7054853 ], [ 6.1490516, 48.7065565 ], [ 6.1518934, 48.7064115 ], [ 6.1537087, 48.7061287 ], [ 6.1555224, 48.7060877 ], [ 6.1562533, 48.7058279 ], [ 6.1569489, 48.7057615 ], [ 6.1574847, 48.7056342 ], [ 6.1585673, 48.7055879 ], [ 6.1593285, 48.7054629 ], [ 6.1598023, 48.7053112 ], [ 6.1602154, 48.705019 ], [ 6.16065, 48.7048412 ], [ 6.1607977, 48.7047808 ], [ 6.1614805, 48.7048738 ], [ 6.1614748, 48.7051258 ], [ 6.1637305, 48.7053646 ], [ 6.1647223, 48.7050497 ], [ 6.1649734, 48.7044747 ], [ 6.1668728, 48.7047023 ], [ 6.1670183, 48.7046411 ], [ 6.167088, 48.7046551 ], [ 6.1688636, 48.7050116 ], [ 6.1690109, 48.7050646 ], [ 6.1687931, 48.7052569 ], [ 6.1695026, 48.7055198 ], [ 6.170176, 48.7057579 ], [ 6.1705256, 48.7058563 ], [ 6.1705875, 48.7057743 ], [ 6.1710071, 48.7059113 ], [ 6.1712521, 48.7060169 ], [ 6.1718744, 48.7061885 ], [ 6.1727047, 48.7063793 ], [ 6.172684, 48.706406 ], [ 6.172682, 48.706409 ], [ 6.1726333, 48.7064721 ], [ 6.172628, 48.706479 ], [ 6.172589, 48.70653 ], [ 6.172676, 48.706558 ], [ 6.1727238, 48.7065738 ], [ 6.1727632, 48.7065894 ], [ 6.1725925, 48.7068111 ], [ 6.1752932, 48.707234 ], [ 6.175564, 48.7073484 ], [ 6.1755165, 48.7073904 ], [ 6.1780182, 48.7092348 ], [ 6.1780609, 48.7092349 ], [ 6.1786656, 48.7089885 ], [ 6.1789338, 48.7087039 ], [ 6.1791279, 48.7084979 ], [ 6.1793176, 48.7082965 ], [ 6.1800125, 48.708558 ], [ 6.1810554, 48.7073418 ], [ 6.1826886, 48.7058649 ], [ 6.1832409, 48.7054984 ], [ 6.1835168, 48.7053764 ], [ 6.1837728, 48.7053214 ], [ 6.1838486, 48.7053121 ], [ 6.1839216, 48.7053031 ], [ 6.1841671, 48.705371 ], [ 6.1852855, 48.7054656 ], [ 6.1864579, 48.705416 ], [ 6.1871083, 48.7053476 ], [ 6.188566, 48.7049736 ], [ 6.1905215, 48.7039831 ], [ 6.1922396, 48.7030139 ], [ 6.1931049, 48.7025705 ], [ 6.1941844, 48.702292 ], [ 6.1954859, 48.7017775 ], [ 6.1968189, 48.7011525 ], [ 6.1975958, 48.7007153 ], [ 6.1981694, 48.7002387 ], [ 6.1983167, 48.6996208 ], [ 6.1991297, 48.6996495 ], [ 6.2005582, 48.7000648 ], [ 6.2010493, 48.7001376 ], [ 6.2020222, 48.7001054 ], [ 6.2026671, 48.6999313 ], [ 6.2031344, 48.6996584 ], [ 6.2033174, 48.6994708 ], [ 6.2034426, 48.6993305 ], [ 6.2036047, 48.6989457 ], [ 6.2035909, 48.6987405 ], [ 6.2037814, 48.6983156 ], [ 6.2042983, 48.6976982 ], [ 6.2052568, 48.697023 ], [ 6.2064757, 48.6962858 ], [ 6.2067961, 48.6959005 ], [ 6.2068074, 48.6955954 ], [ 6.2065033, 48.6952877 ], [ 6.2061636, 48.6951667 ], [ 6.2043648, 48.6946217 ], [ 6.2036559, 48.6941919 ], [ 6.2032677, 48.6937678 ], [ 6.2030981, 48.6934522 ], [ 6.2030258, 48.692971 ], [ 6.2030594, 48.6924365 ], [ 6.2033447, 48.6917278 ], [ 6.2039736, 48.6911267 ], [ 6.2053302, 48.6901033 ], [ 6.2057739, 48.689631 ], [ 6.2062396, 48.6887969 ], [ 6.2065683, 48.6878747 ], [ 6.206701, 48.6878437 ], [ 6.2069367, 48.6873354 ], [ 6.2069695, 48.6856315 ], [ 6.2126188, 48.6730888 ], [ 6.212357, 48.6731688 ], [ 6.2105957, 48.6734298 ], [ 6.2103438, 48.6735259 ], [ 6.2100688, 48.6737654 ], [ 6.2097526, 48.673854 ], [ 6.2084369, 48.6740544 ], [ 6.2077502, 48.6742236 ], [ 6.204849, 48.6754374 ], [ 6.2034491, 48.6762565 ], [ 6.2028795, 48.676801 ], [ 6.2022324, 48.6766856 ], [ 6.2018719, 48.6766213 ], [ 6.201557, 48.6763794 ], [ 6.2006774, 48.6759229 ], [ 6.2003171, 48.6759196 ], [ 6.2001125, 48.6758967 ], [ 6.1998474, 48.6757598 ], [ 6.1999178, 48.6753425 ], [ 6.1986375, 48.6750522 ], [ 6.1983623, 48.6750388 ], [ 6.1973614, 48.6745639 ], [ 6.197232, 48.6745359 ], [ 6.1971929, 48.6744108 ], [ 6.1962669, 48.6738296 ], [ 6.1962616, 48.6738193 ], [ 6.1962209, 48.6737404 ], [ 6.1960593, 48.6737394 ], [ 6.195449, 48.6733161 ], [ 6.1954597, 48.6731374 ], [ 6.1951637, 48.6729173 ], [ 6.1944154, 48.6721648 ], [ 6.1942356, 48.6720614 ], [ 6.1935787, 48.6722937 ], [ 6.1936433, 48.6724341 ], [ 6.1891576, 48.6760091 ], [ 6.1888859, 48.6762938 ], [ 6.1869066, 48.6773463 ], [ 6.1866329, 48.677161 ], [ 6.1865274, 48.6771905 ], [ 6.1859295, 48.676817 ], [ 6.1855885, 48.6765676 ], [ 6.1846454, 48.676016 ], [ 6.1844791, 48.6758272 ], [ 6.1840313, 48.6757321 ], [ 6.1837086, 48.6755545 ], [ 6.1815107, 48.6743449 ], [ 6.1804636, 48.6737686 ], [ 6.1800968, 48.6736449 ], [ 6.1795275, 48.6733076 ], [ 6.1793229, 48.6732561 ], [ 6.1782111, 48.672801 ], [ 6.1773496, 48.6726713 ], [ 6.1754634, 48.6718589 ], [ 6.175283, 48.6717809 ], [ 6.1752031, 48.6717464 ], [ 6.1751035, 48.6717037 ], [ 6.1744261, 48.6714411 ], [ 6.1733048, 48.6709247 ], [ 6.1719247, 48.6701609 ], [ 6.1714181, 48.669682 ], [ 6.1706677, 48.6691918 ], [ 6.1700733, 48.6688036 ], [ 6.1692601, 48.6684745 ], [ 6.1685382, 48.6683141 ], [ 6.1682989, 48.6683837 ], [ 6.1680496, 48.6681328 ], [ 6.1677943, 48.668122 ], [ 6.1670084, 48.6677012 ], [ 6.1667282, 48.6677495 ], [ 6.1649214, 48.666906 ], [ 6.1639107, 48.6672033 ], [ 6.1631295, 48.6675006 ], [ 6.162951, 48.6675893 ], [ 6.1626284, 48.6677826 ], [ 6.1622579, 48.6680686 ], [ 6.1620526, 48.6681898 ], [ 6.1621332, 48.6683872 ], [ 6.1618897, 48.6688492 ], [ 6.1613074, 48.6691137 ], [ 6.1602251, 48.6696053 ], [ 6.1595896, 48.6703171 ], [ 6.1595012, 48.6705048 ], [ 6.159355, 48.6707042 ], [ 6.1603388, 48.6710892 ], [ 6.1601558, 48.671319 ], [ 6.1612464, 48.6719468 ], [ 6.1644522, 48.6731614 ], [ 6.1635616, 48.6745473 ], [ 6.1631493, 48.6751889 ], [ 6.1627449, 48.6761583 ], [ 6.1627149, 48.6762399 ], [ 6.1625226, 48.6768976 ], [ 6.1626008, 48.6769707 ], [ 6.1625451, 48.6775203 ], [ 6.1621528, 48.6779113 ], [ 6.1620247, 48.6782338 ], [ 6.1616213, 48.6787539 ], [ 6.1614762, 48.6789486 ], [ 6.1613089, 48.6791997 ], [ 6.1616054, 48.6794189 ], [ 6.1617193, 48.6795031 ], [ 6.1618948, 48.6796349 ], [ 6.1626148, 48.680173 ], [ 6.1612918, 48.6824034 ], [ 6.1605762, 48.6831483 ], [ 6.1600506, 48.6829319 ], [ 6.1600407, 48.6828636 ], [ 6.1596845, 48.6827664 ], [ 6.159231, 48.6834275 ], [ 6.1591278, 48.6834341 ], [ 6.158494, 48.6846941 ], [ 6.1574264, 48.6865357 ], [ 6.1572242, 48.6868814 ], [ 6.156867, 48.6875402 ], [ 6.1563871, 48.6874207 ], [ 6.1563046, 48.6874889 ], [ 6.1562188, 48.6876041 ], [ 6.1561493, 48.687664 ], [ 6.1560808, 48.687746 ], [ 6.1560335, 48.6878004 ], [ 6.1558972, 48.6879574 ], [ 6.1558432, 48.6880182 ], [ 6.1558304, 48.6880327 ], [ 6.155797, 48.6880709 ], [ 6.1557786, 48.6880922 ], [ 6.1557386, 48.6881394 ], [ 6.1555922, 48.688316 ], [ 6.1555723, 48.6883406 ], [ 6.1554512, 48.6884932 ], [ 6.1553409, 48.6886539 ], [ 6.1552992, 48.6887148 ], [ 6.1550801, 48.6886923 ], [ 6.1548616, 48.6886199 ], [ 6.1547886, 48.6886258 ], [ 6.1545928, 48.6889066 ], [ 6.1544925, 48.6890455 ], [ 6.1544181, 48.6891223 ], [ 6.1536175, 48.6898242 ], [ 6.1531732, 48.6897342 ], [ 6.1528834, 48.6901964 ], [ 6.1527134, 48.6910295 ], [ 6.1517556, 48.6912319 ], [ 6.1503014, 48.6906511 ], [ 6.1504019, 48.6905237 ], [ 6.1500973, 48.6901868 ], [ 6.1500653, 48.6898291 ], [ 6.1492327, 48.6897884 ], [ 6.1489835, 48.6897343 ], [ 6.1487413, 48.6895864 ], [ 6.1486562, 48.6896454 ], [ 6.1480019, 48.6894084 ], [ 6.147934, 48.689445 ], [ 6.1472542, 48.6891214 ], [ 6.1475118, 48.6886579 ], [ 6.1469097, 48.6884516 ], [ 6.1466864, 48.6884523 ], [ 6.1461413, 48.6883248 ], [ 6.1461661, 48.6881252 ], [ 6.1459754, 48.6880521 ], [ 6.1455759, 48.6880622 ], [ 6.1452315, 48.6880074 ], [ 6.1451744, 48.6880458 ], [ 6.144436, 48.6880738 ], [ 6.1444219, 48.687955 ], [ 6.1438577, 48.6879706 ], [ 6.1424969, 48.6881686 ], [ 6.1421042, 48.6882678 ], [ 6.1420559, 48.6883556 ], [ 6.1417685, 48.6883917 ], [ 6.1415222, 48.688443 ], [ 6.1415156, 48.6885525 ], [ 6.1409574, 48.6885811 ], [ 6.1407284, 48.6886617 ], [ 6.1399918, 48.6887128 ], [ 6.139724, 48.6886787 ], [ 6.1393225, 48.6887286 ], [ 6.1392663, 48.6885814 ], [ 6.1386984, 48.6886799 ], [ 6.1388295, 48.6899643 ], [ 6.1387884, 48.6900384 ], [ 6.1387417, 48.690131 ], [ 6.1386425, 48.6906962 ], [ 6.138554, 48.6910292 ], [ 6.1385304, 48.6907798 ], [ 6.1383307, 48.6906168 ], [ 6.137313, 48.690326 ], [ 6.1357227, 48.6896622 ], [ 6.1350003, 48.6893547 ], [ 6.1348191, 48.6894455 ], [ 6.1342142, 48.6921142 ], [ 6.138306, 48.6922757 ], [ 6.1381012, 48.6934833 ], [ 6.138031, 48.6945328 ], [ 6.1380578, 48.6948146 ], [ 6.1380248, 48.6949372 ], [ 6.1379249, 48.6953076 ], [ 6.1378599, 48.6958329 ], [ 6.1377473, 48.6967014 ], [ 6.1377004, 48.6970303 ], [ 6.1376015, 48.6975572 ], [ 6.1374813, 48.698141 ], [ 6.1373655, 48.6985982 ], [ 6.1372572, 48.6990274 ], [ 6.1371792, 48.6993396 ], [ 6.1371071, 48.6995272 ], [ 6.137018, 48.6997668 ], [ 6.1368429, 48.7002571 ], [ 6.1367871, 48.7003406 ], [ 6.136686, 48.7004489 ], [ 6.136592, 48.7006706 ] ] ] } },
{ "type": "Feature", "properties": { "code_insee": "54439", "name": "Pulnoy", "population_totale": 4870.0, "pop_le_5min": 4582.0, "pct_le_5min": 94.09, "pop_le_10min": 4864.0, "pct_le_10min": 99.88, "pop_le_15min": 4864.0, "pct_le_15min": 99.88 }, "geometry": { "type": "Polygon", "coordinates": [ [ [ 6.2491693, 48.7005063 ], [ 6.2491246, 48.700723 ], [ 6.2490084, 48.7012859 ], [ 6.2489995, 48.7023193 ], [ 6.2490366, 48.7031336 ], [ 6.2490897, 48.7045986 ], [ 6.2487759, 48.7045619 ], [ 6.248792, 48.7046015 ], [ 6.250001, 48.7047093 ], [ 6.2497819, 48.7053842 ], [ 6.2495086, 48.7062521 ], [ 6.2493043, 48.7069373 ], [ 6.2490937, 48.7083058 ], [ 6.2508557, 48.7086307 ], [ 6.2503233, 48.7097531 ], [ 6.2499497, 48.7096666 ], [ 6.2495861, 48.7106544 ], [ 6.2498241, 48.7107147 ], [ 6.2492979, 48.7115298 ], [ 6.2501838, 48.7118467 ], [ 6.2509585, 48.712106 ], [ 6.251387, 48.7111113 ], [ 6.2519637, 48.7104578 ], [ 6.2532213, 48.7091069 ], [ 6.254444, 48.7094469 ], [ 6.2555089, 48.7097312 ], [ 6.2559169, 48.7097602 ], [ 6.2569144, 48.7101914 ], [ 6.2570364, 48.7102395 ], [ 6.2572845, 48.7103352 ], [ 6.2576964, 48.7104497 ], [ 6.2580322, 48.7105536 ], [ 6.2588543, 48.7107011 ], [ 6.259789, 48.7107649 ], [ 6.2606319, 48.7106945 ], [ 6.260598, 48.7105921 ], [ 6.2610885, 48.7104874 ], [ 6.2622883, 48.7101405 ], [ 6.2624987, 48.7100802 ], [ 6.2631305, 48.7098987 ], [ 6.2639815, 48.7096514 ], [ 6.2642567, 48.7095679 ], [ 6.264209, 48.7094261 ], [ 6.2642535, 48.709419 ], [ 6.2643823, 48.7093984 ], [ 6.2653137, 48.7090732 ], [ 6.2662597, 48.71005 ], [ 6.2684807, 48.7088472 ], [ 6.2692867, 48.7085038 ], [ 6.2695308, 48.708841 ], [ 6.2699241, 48.7086764 ], [ 6.2703794, 48.7085233 ], [ 6.2707932, 48.7084122 ], [ 6.2714747, 48.7083153 ], [ 6.2718673, 48.7083162 ], [ 6.2721238, 48.7083348 ], [ 6.2723592, 48.7083763 ], [ 6.2725013, 48.7084104 ], [ 6.2726884, 48.7084772 ], [ 6.27445, 48.7069404 ], [ 6.2750245, 48.7064709 ], [ 6.2787854, 48.7050458 ], [ 6.2813426, 48.7063311 ], [ 6.2822195, 48.7055949 ], [ 6.2811081, 48.704819 ], [ 6.282096, 48.7042418 ], [ 6.2824705, 48.7044134 ], [ 6.28402, 48.7032629 ], [ 6.2805441, 48.7022541 ], [ 6.2806243, 48.7020233 ], [ 6.283497, 48.7014241 ], [ 6.283541, 48.7011511 ], [ 6.2843031, 48.7010378 ], [ 6.2851478, 48.7011388 ], [ 6.2858452, 48.7010386 ], [ 6.2865041, 48.700451 ], [ 6.2864353, 48.6999973 ], [ 6.2861746, 48.6996046 ], [ 6.2857992, 48.6994222 ], [ 6.2852094, 48.6992255 ], [ 6.2853912, 48.6988278 ], [ 6.2853921, 48.6986327 ], [ 6.2853778, 48.6976233 ], [ 6.2835935, 48.6956102 ], [ 6.2823652, 48.6947254 ], [ 6.2789908, 48.6942427 ], [ 6.2784579, 48.6951647 ], [ 6.2781204, 48.6963584 ], [ 6.2773461, 48.6961054 ], [ 6.2768888, 48.696066 ], [ 6.2767332, 48.6961269 ], [ 6.2748371, 48.6959928 ], [ 6.2737613, 48.6955101 ], [ 6.2726747, 48.6953585 ], [ 6.2723015, 48.6953636 ], [ 6.2710127, 48.6952791 ], [ 6.268928, 48.6949821 ], [ 6.2661899, 48.6944938 ], [ 6.2644577, 48.6942428 ], [ 6.2627079, 48.6939225 ], [ 6.262657, 48.6941238 ], [ 6.2626191, 48.6942396 ], [ 6.2577269, 48.6939084 ], [ 6.2576966, 48.6938995 ], [ 6.25712, 48.6943158 ], [ 6.257012, 48.6942571 ], [ 6.2566857, 48.6945054 ], [ 6.2566294, 48.6945315 ], [ 6.2564832, 48.6945621 ], [ 6.2551129, 48.6943173 ], [ 6.2549114, 48.6945689 ], [ 6.2543314, 48.6954176 ], [ 6.2535006, 48.6962495 ], [ 6.2538232, 48.6964386 ], [ 6.2536249, 48.6967956 ], [ 6.2538888, 48.6968468 ], [ 6.2536474, 48.6970785 ], [ 6.2527693, 48.6980169 ], [ 6.2517866, 48.6990544 ], [ 6.2506397, 48.6985222 ], [ 6.2500895, 48.6992471 ], [ 6.2498132, 48.6998755 ], [ 6.2494159, 48.6997279 ], [ 6.2491693, 48.7005063 ] ] ] } },
{ "type": "Feature", "properties": { "code_insee": "54482", "name": "Saint-Max", "population_totale": 9220.0, "pop_le_5min": 8463.0, "pct_le_5min": 91.79, "pop_le_10min": 9220.0, "pct_le_10min": 100.0, "pop_le_15min": 9220.0, "pct_le_15min": 100.0 }, "geometry": { "type": "Polygon", "coordinates": [ [ [ 6.1922396, 48.7030139 ], [ 6.1936566, 48.7039662 ], [ 6.1942341, 48.7047211 ], [ 6.194967, 48.7046137 ], [ 6.1953777, 48.704583 ], [ 6.1964204, 48.7047122 ], [ 6.1987518, 48.7053166 ], [ 6.198414, 48.7060231 ], [ 6.2000237, 48.706382 ], [ 6.2009626, 48.7066457 ], [ 6.201286, 48.7067462 ], [ 6.2032331, 48.7074025 ], [ 6.2010707, 48.710764 ], [ 6.2016762, 48.7108752 ], [ 6.2011868, 48.7114651 ], [ 6.1999612, 48.7122877 ], [ 6.2003463, 48.7128387 ], [ 6.200778, 48.7132386 ], [ 6.2006332, 48.7133448 ], [ 6.2016708, 48.7142303 ], [ 6.20209, 48.7143752 ], [ 6.2027005, 48.7138868 ], [ 6.2033205, 48.713615 ], [ 6.2035249, 48.7137141 ], [ 6.2037183, 48.7137654 ], [ 6.2037748, 48.7143999 ], [ 6.203965, 48.7146923 ], [ 6.2039842, 48.7148459 ], [ 6.2046847, 48.7155163 ], [ 6.2053726, 48.7159316 ], [ 6.2065101, 48.7162256 ], [ 6.2064449, 48.7138848 ], [ 6.2065522, 48.7118901 ], [ 6.2069253, 48.7119112 ], [ 6.2073241, 48.7101042 ], [ 6.2104216, 48.7103122 ], [ 6.2113833, 48.7106892 ], [ 6.2113625, 48.710796 ], [ 6.2123328, 48.7110956 ], [ 6.2127573, 48.7103724 ], [ 6.2133343, 48.7105794 ], [ 6.2138383, 48.7096607 ], [ 6.2142897, 48.7097513 ], [ 6.2142635, 48.7098824 ], [ 6.2149914, 48.7099781 ], [ 6.2151414, 48.709631 ], [ 6.2152889, 48.7092959 ], [ 6.2152986, 48.7092826 ], [ 6.2153412, 48.7091762 ], [ 6.2154822, 48.7088239 ], [ 6.215667, 48.7083279 ], [ 6.215828, 48.7078858 ], [ 6.2158857, 48.7075042 ], [ 6.2159031, 48.7072023 ], [ 6.2159012, 48.707122 ], [ 6.2157633, 48.7071099 ], [ 6.2156736, 48.7071004 ], [ 6.2154174, 48.7070719 ], [ 6.2146105, 48.7067958 ], [ 6.2143297, 48.7067587 ], [ 6.2148781, 48.7054726 ], [ 6.2149324, 48.7054221 ], [ 6.2151189, 48.7049428 ], [ 6.2152808, 48.7049678 ], [ 6.2159402, 48.7034423 ], [ 6.2158957, 48.7028701 ], [ 6.2157564, 48.7028088 ], [ 6.2158916, 48.701882 ], [ 6.2155559, 48.7017483 ], [ 6.2142427, 48.7014906 ], [ 6.214337, 48.700857 ], [ 6.2146373, 48.6995019 ], [ 6.2146603, 48.6993979 ], [ 6.2148269, 48.6983061 ], [ 6.2145562, 48.6982898 ], [ 6.2120323, 48.6979272 ], [ 6.2098784, 48.6974528 ], [ 6.209079, 48.6971832 ], [ 6.2082262, 48.6970267 ], [ 6.2089822, 48.6961737 ], [ 6.2086678, 48.6960483 ], [ 6.2086214, 48.6960913 ], [ 6.208157, 48.6965213 ], [ 6.2073414, 48.6972815 ], [ 6.2061116, 48.6984858 ], [ 6.2054782, 48.6983779 ], [ 6.2047468, 48.6985376 ], [ 6.2036047, 48.6989457 ], [ 6.2034426, 48.6993305 ], [ 6.2033174, 48.6994708 ], [ 6.2031344, 48.6996584 ], [ 6.2026671, 48.6999313 ], [ 6.2020222, 48.7001054 ], [ 6.2010493, 48.7001376 ], [ 6.2005582, 48.7000648 ], [ 6.1991297, 48.6996495 ], [ 6.1983167, 48.6996208 ], [ 6.1981694, 48.7002387 ], [ 6.1975958, 48.7007153 ], [ 6.1968189, 48.7011525 ], [ 6.1954859, 48.7017775 ], [ 6.1941844, 48.702292 ], [ 6.1931049, 48.7025705 ], [ 6.1922396, 48.7030139 ] ] ] } },
{ "type": "Feature", "properties": { "code_insee": "54495", "name": "Saulxures-lès-Nancy", "population_totale": 3825.5, "pop_le_5min": 3315.5, "pct_le_5min": 86.67, "pop_le_10min": 3800.5, "pct_le_10min": 99.35, "pop_le_15min": 3822.5, "pct_le_15min": 99.92 }, "geometry": { "type": "Polygon", "coordinates": [ [ [ 6.2364661, 48.6720418 ], [ 6.235468, 48.6761113 ], [ 6.2351608, 48.6762713 ], [ 6.2337513, 48.6764442 ], [ 6.2329419, 48.6764346 ], [ 6.2319713, 48.6775721 ], [ 6.2306176, 48.6787809 ], [ 6.2348807, 48.6781408 ], [ 6.2339814, 48.6801104 ], [ 6.2339568, 48.6815601 ], [ 6.2336958, 48.682391 ], [ 6.2342374, 48.6836262 ], [ 6.2340984, 48.6842537 ], [ 6.2337542, 48.6842614 ], [ 6.2334645, 48.6858489 ], [ 6.2333093, 48.6859497 ], [ 6.2333951, 48.6860048 ], [ 6.2333525, 48.6861807 ], [ 6.2341508, 48.6866888 ], [ 6.2339967, 48.6868021 ], [ 6.2352372, 48.687511 ], [ 6.235187, 48.6875916 ], [ 6.2366117, 48.6884104 ], [ 6.236779, 48.6894259 ], [ 6.2369576, 48.6894655 ], [ 6.2373114, 48.6907818 ], [ 6.2373652, 48.6922704 ], [ 6.237276, 48.6925723 ], [ 6.2369998, 48.692889 ], [ 6.2370165, 48.6929424 ], [ 6.2367233, 48.6931227 ], [ 6.2374609, 48.6934129 ], [ 6.2369392, 48.6941988 ], [ 6.235689, 48.6937684 ], [ 6.2349734, 48.6944821 ], [ 6.2365457, 48.6951007 ], [ 6.2380745, 48.6954842 ], [ 6.2393946, 48.6956839 ], [ 6.2392275, 48.696113 ], [ 6.2381204, 48.6959102 ], [ 6.2377788, 48.6969142 ], [ 6.24008, 48.6973422 ], [ 6.2396397, 48.6981679 ], [ 6.2409232, 48.6983524 ], [ 6.2412597, 48.6982369 ], [ 6.2424334, 48.6983837 ], [ 6.2424228, 48.6990495 ], [ 6.2432846, 48.699122 ], [ 6.2444618, 48.6992216 ], [ 6.2443386, 48.6999909 ], [ 6.2472072, 48.7001458 ], [ 6.2471524, 48.7003292 ], [ 6.2477537, 48.7003565 ], [ 6.2489555, 48.7004839 ], [ 6.2490603, 48.7004949 ], [ 6.2491693, 48.7005063 ], [ 6.2494159, 48.6997279 ], [ 6.2498132, 48.6998755 ], [ 6.2500895, 48.6992471 ], [ 6.2506397, 48.6985222 ], [ 6.2517866, 48.6990544 ], [ 6.2527693, 48.6980169 ], [ 6.2536474, 48.6970785 ], [ 6.2538888, 48.6968468 ], [ 6.2536249, 48.6967956 ], [ 6.2538232, 48.6964386 ], [ 6.2535006, 48.6962495 ], [ 6.2543314, 48.6954176 ], [ 6.2549114, 48.6945689 ], [ 6.2551129, 48.6943173 ], [ 6.2564832, 48.6945621 ], [ 6.2566294, 48.6945315 ], [ 6.2566857, 48.6945054 ], [ 6.257012, 48.6942571 ], [ 6.25712, 48.6943158 ], [ 6.2576966, 48.6938995 ], [ 6.2577269, 48.6939084 ], [ 6.2626191, 48.6942396 ], [ 6.262657, 48.6941238 ], [ 6.2627079, 48.6939225 ], [ 6.2644577, 48.6942428 ], [ 6.2661899, 48.6944938 ], [ 6.268928, 48.6949821 ], [ 6.2710127, 48.6952791 ], [ 6.2723015, 48.6953636 ], [ 6.2726747, 48.6953585 ], [ 6.2737613, 48.6955101 ], [ 6.2748371, 48.6959928 ], [ 6.2767332, 48.6961269 ], [ 6.2768888, 48.696066 ], [ 6.2773461, 48.6961054 ], [ 6.2781204, 48.6963584 ], [ 6.2784579, 48.6951647 ], [ 6.2789908, 48.6942427 ], [ 6.2823652, 48.6947254 ], [ 6.2807229, 48.6920279 ], [ 6.2841055, 48.6903955 ], [ 6.2815243, 48.688985 ], [ 6.2805279, 48.6887046 ], [ 6.2764203, 48.6866119 ], [ 6.2769758, 48.6861877 ], [ 6.2751059, 48.6851724 ], [ 6.274508, 48.6847731 ], [ 6.2739841, 48.6838762 ], [ 6.2730119, 48.6830399 ], [ 6.2744571, 48.6818348 ], [ 6.2746572, 48.6812129 ], [ 6.2745826, 48.6805555 ], [ 6.2739063, 48.6796568 ], [ 6.2728979, 48.6800355 ], [ 6.2712835, 48.6810118 ], [ 6.2696727, 48.6803356 ], [ 6.2673842, 48.6797715 ], [ 6.2668134, 48.6801794 ], [ 6.2619734, 48.6782618 ], [ 6.2584029, 48.6763001 ], [ 6.2576292, 48.6756171 ], [ 6.2596872, 48.6738937 ], [ 6.2579291, 48.6732558 ], [ 6.2566544, 48.6747192 ], [ 6.2561015, 48.6747161 ], [ 6.2558032, 48.675181 ], [ 6.250658, 48.6725637 ], [ 6.2487648, 48.6736158 ], [ 6.2476507, 48.6732882 ], [ 6.2468884, 48.6736028 ], [ 6.2423309, 48.6724952 ], [ 6.2418416, 48.6730887 ], [ 6.2391234, 48.6715186 ], [ 6.2385053, 48.6717505 ], [ 6.2364661, 48.6720418 ] ] ] } },
{ "type": "Feature", "properties": { "code_insee": "54498", "name": "Seichamps", "population_totale": 5097.5, "pop_le_5min": 4891.5, "pct_le_5min": 95.96, "pop_le_10min": 5090.5, "pct_le_10min": 99.86, "pop_le_15min": 5097.5, "pct_le_15min": 100.0 }, "geometry": { "type": "Polygon", "coordinates": [ [ [ 6.2501514, 48.7180988 ], [ 6.2499888, 48.7188522 ], [ 6.2495575, 48.7201664 ], [ 6.2495658, 48.7202539 ], [ 6.2503575, 48.7204676 ], [ 6.2509894, 48.7205926 ], [ 6.2513601, 48.7206248 ], [ 6.2514018, 48.7206424 ], [ 6.2514519, 48.7206354 ], [ 6.2519283, 48.7206813 ], [ 6.2537609, 48.7207707 ], [ 6.2552556, 48.7208144 ], [ 6.2552564, 48.7208258 ], [ 6.2554551, 48.7208226 ], [ 6.2562708, 48.7207361 ], [ 6.2568598, 48.7206449 ], [ 6.2574456, 48.720647 ], [ 6.2583033, 48.7207603 ], [ 6.25859, 48.7208252 ], [ 6.2586121, 48.720813 ], [ 6.2588988, 48.7208716 ], [ 6.2589057, 48.7208866 ], [ 6.2589181, 48.7208775 ], [ 6.2599261, 48.7210883 ], [ 6.260063, 48.7211056 ], [ 6.2600817, 48.721124 ], [ 6.2601083, 48.7211173 ], [ 6.2607911, 48.7212305 ], [ 6.2608296, 48.7212511 ], [ 6.2607935, 48.7213396 ], [ 6.2603074, 48.7218702 ], [ 6.2601625, 48.7219425 ], [ 6.261632, 48.7222614 ], [ 6.2617001, 48.7221598 ], [ 6.2641254, 48.7228054 ], [ 6.2665581, 48.7234753 ], [ 6.2677959, 48.7237765 ], [ 6.2685304, 48.7239129 ], [ 6.2691253, 48.7239814 ], [ 6.2698907, 48.7239018 ], [ 6.270495, 48.7239012 ], [ 6.2706089, 48.7239157 ], [ 6.2713089, 48.724119 ], [ 6.272073, 48.7243656 ], [ 6.2746165, 48.7253892 ], [ 6.2748152, 48.7247819 ], [ 6.2750205, 48.7242847 ], [ 6.2750427, 48.7242721 ], [ 6.2750548, 48.7242069 ], [ 6.275343, 48.7235786 ], [ 6.275373, 48.7235133 ], [ 6.2754272, 48.7234354 ], [ 6.2756117, 48.7231702 ], [ 6.2755997, 48.723163 ], [ 6.2759879, 48.7225427 ], [ 6.2762127, 48.7222276 ], [ 6.2765169, 48.7219132 ], [ 6.2770601, 48.7214932 ], [ 6.2774238, 48.7211641 ], [ 6.2786561, 48.7201151 ], [ 6.2792833, 48.7198412 ], [ 6.2809472, 48.7188046 ], [ 6.2809811, 48.7187966 ], [ 6.2819585, 48.7181854 ], [ 6.2825234, 48.718407 ], [ 6.2839096, 48.7188758 ], [ 6.2843361, 48.7191013 ], [ 6.2845955, 48.7192619 ], [ 6.2847655, 48.7194009 ], [ 6.2860988, 48.7206683 ], [ 6.2865752, 48.7209483 ], [ 6.2868782, 48.7210789 ], [ 6.2875827, 48.721344 ], [ 6.2878399, 48.7213841 ], [ 6.2890885, 48.7216633 ], [ 6.2899949, 48.7219126 ], [ 6.2902839, 48.7219671 ], [ 6.2903066, 48.7219371 ], [ 6.290364, 48.7215782 ], [ 6.2903806, 48.7215645 ], [ 6.2903737, 48.721502 ], [ 6.2904865, 48.720906 ], [ 6.2922483, 48.7209408 ], [ 6.292285, 48.7209178 ], [ 6.2923298, 48.7208218 ], [ 6.292364, 48.7207949 ], [ 6.2926525, 48.7208187 ], [ 6.29267, 48.7196021 ], [ 6.2928804, 48.7195571 ], [ 6.2928288, 48.7193793 ], [ 6.2926954, 48.7192391 ], [ 6.2926862, 48.7192057 ], [ 6.2928014, 48.71904 ], [ 6.2929962, 48.7186026 ], [ 6.2931494, 48.7184172 ], [ 6.2932206, 48.7182817 ], [ 6.2932328, 48.7181998 ], [ 6.2932075, 48.7181142 ], [ 6.2932174, 48.7180832 ], [ 6.2932838, 48.7180582 ], [ 6.2933289, 48.7180011 ], [ 6.2933133, 48.7175201 ], [ 6.2932901, 48.7174662 ], [ 6.2933256, 48.7172668 ], [ 6.2931837, 48.7167426 ], [ 6.2930455, 48.7163811 ], [ 6.2928091, 48.7159646 ], [ 6.2926654, 48.715612 ], [ 6.2925216, 48.7150207 ], [ 6.2924127, 48.7147163 ], [ 6.2922464, 48.7144199 ], [ 6.2920347, 48.7139714 ], [ 6.2919649, 48.7136266 ], [ 6.291401, 48.7123783 ], [ 6.2913746, 48.7123546 ], [ 6.289283, 48.712591 ], [ 6.28949, 48.7104325 ], [ 6.2895836, 48.7097764 ], [ 6.2895702, 48.7097568 ], [ 6.2886833, 48.70957 ], [ 6.2884271, 48.709494 ], [ 6.2866776, 48.7088544 ], [ 6.2858105, 48.7085607 ], [ 6.2849478, 48.7084349 ], [ 6.2841551, 48.7083725 ], [ 6.2834639, 48.7083998 ], [ 6.2834277, 48.7084885 ], [ 6.279859, 48.7081112 ], [ 6.2798287, 48.7081199 ], [ 6.2796833, 48.7082552 ], [ 6.2795867, 48.7082342 ], [ 6.2781478, 48.7077604 ], [ 6.2775298, 48.7075247 ], [ 6.2750245, 48.7064709 ], [ 6.27445, 48.7069404 ], [ 6.2726884, 48.7084772 ], [ 6.2725013, 48.7084104 ], [ 6.2723592, 48.7083763 ], [ 6.2721238, 48.7083348 ], [ 6.2718673, 48.7083162 ], [ 6.2714747, 48.7083153 ], [ 6.2707932, 48.7084122 ], [ 6.2703794, 48.7085233 ], [ 6.2699241, 48.7086764 ], [ 6.2695308, 48.708841 ], [ 6.2692867, 48.7085038 ], [ 6.2684807, 48.7088472 ], [ 6.2662597, 48.71005 ], [ 6.2653137, 48.7090732 ], [ 6.2643823, 48.7093984 ], [ 6.2642535, 48.709419 ], [ 6.264209, 48.7094261 ], [ 6.2642567, 48.7095679 ], [ 6.2639815, 48.7096514 ], [ 6.2631305, 48.7098987 ], [ 6.2624987, 48.7100802 ], [ 6.2622883, 48.7101405 ], [ 6.2610885, 48.7104874 ], [ 6.260598, 48.7105921 ], [ 6.2606319, 48.7106945 ], [ 6.259789, 48.7107649 ], [ 6.2588543, 48.7107011 ], [ 6.2580322, 48.7105536 ], [ 6.2576964, 48.7104497 ], [ 6.2572845, 48.7103352 ], [ 6.2570364, 48.7102395 ], [ 6.2569144, 48.7101914 ], [ 6.2559169, 48.7097602 ], [ 6.2555089, 48.7097312 ], [ 6.254444, 48.7094469 ], [ 6.2532213, 48.7091069 ], [ 6.2519637, 48.7104578 ], [ 6.251387, 48.7111113 ], [ 6.2509585, 48.712106 ], [ 6.2501838, 48.7118467 ], [ 6.249396, 48.7128774 ], [ 6.2483759, 48.7141109 ], [ 6.2504576, 48.7148924 ], [ 6.2504065, 48.7149761 ], [ 6.2497586, 48.7160369 ], [ 6.2507612, 48.716308 ], [ 6.2501514, 48.7180988 ] ] ] } },
{ "type": "Feature", "properties": { "code_insee": "54526", "name": "Tomblaine", "population_totale": 9176.0, "pop_le_5min": 8921.5, "pct_le_5min": 97.23, "pop_le_10min": 9176.0, "pct_le_10min": 100.0, "pop_le_15min": 9176.0, "pct_le_15min": 100.0 }, "geometry": { "type": "Polygon", "coordinates": [ [ [ 6.2036047, 48.6989457 ], [ 6.2047468, 48.6985376 ], [ 6.2054782, 48.6983779 ], [ 6.2061116, 48.6984858 ], [ 6.2073414, 48.6972815 ], [ 6.208157, 48.6965213 ], [ 6.2086214, 48.6960913 ], [ 6.2086678, 48.6960483 ], [ 6.2089822, 48.6961737 ], [ 6.2082262, 48.6970267 ], [ 6.209079, 48.6971832 ], [ 6.2098784, 48.6974528 ], [ 6.2120323, 48.6979272 ], [ 6.2145562, 48.6982898 ], [ 6.2148269, 48.6983061 ], [ 6.2146603, 48.6993979 ], [ 6.2187652, 48.6992627 ], [ 6.2188972, 48.6988638 ], [ 6.2192823, 48.6988963 ], [ 6.2198737, 48.697311 ], [ 6.2195559, 48.6972554 ], [ 6.2196307, 48.6967672 ], [ 6.2200221, 48.6963179 ], [ 6.2198126, 48.6962046 ], [ 6.2199308, 48.6957896 ], [ 6.2207883, 48.6960094 ], [ 6.2208157, 48.695556 ], [ 6.2215071, 48.6956569 ], [ 6.2245675, 48.6966234 ], [ 6.2257695, 48.6953908 ], [ 6.2286643, 48.6964833 ], [ 6.2290789, 48.6960913 ], [ 6.2302618, 48.6967026 ], [ 6.2318238, 48.6956652 ], [ 6.2349865, 48.6968937 ], [ 6.2355165, 48.6962943 ], [ 6.2377788, 48.6969142 ], [ 6.2381204, 48.6959102 ], [ 6.2392275, 48.696113 ], [ 6.2393946, 48.6956839 ], [ 6.2380745, 48.6954842 ], [ 6.2365457, 48.6951007 ], [ 6.2349734, 48.6944821 ], [ 6.235689, 48.6937684 ], [ 6.2369392, 48.6941988 ], [ 6.2374609, 48.6934129 ], [ 6.2367233, 48.6931227 ], [ 6.2370165, 48.6929424 ], [ 6.2369998, 48.692889 ], [ 6.237276, 48.6925723 ], [ 6.2373652, 48.6922704 ], [ 6.2373114, 48.6907818 ], [ 6.2369576, 48.6894655 ], [ 6.236779, 48.6894259 ], [ 6.2366117, 48.6884104 ], [ 6.235187, 48.6875916 ], [ 6.2352372, 48.687511 ], [ 6.2339967, 48.6868021 ], [ 6.2341508, 48.6866888 ], [ 6.2333525, 48.6861807 ], [ 6.2333951, 48.6860048 ], [ 6.2333093, 48.6859497 ], [ 6.2334645, 48.6858489 ], [ 6.2337542, 48.6842614 ], [ 6.2340984, 48.6842537 ], [ 6.2342374, 48.6836262 ], [ 6.2336958, 48.682391 ], [ 6.2339568, 48.6815601 ], [ 6.2339814, 48.6801104 ], [ 6.2348807, 48.6781408 ], [ 6.2306176, 48.6787809 ], [ 6.2319713, 48.6775721 ], [ 6.2329419, 48.6764346 ], [ 6.2337513, 48.6764442 ], [ 6.2351608, 48.6762713 ], [ 6.235468, 48.6761113 ], [ 6.2364661, 48.6720418 ], [ 6.2332962, 48.672973 ], [ 6.2300755, 48.6720276 ], [ 6.2279654, 48.6714495 ], [ 6.227823, 48.6713738 ], [ 6.2269792, 48.6719217 ], [ 6.2268776, 48.6719791 ], [ 6.226676, 48.6721131 ], [ 6.2265705, 48.6721436 ], [ 6.2265564, 48.6721506 ], [ 6.2259985, 48.6717676 ], [ 6.2255654, 48.6715024 ], [ 6.2251993, 48.6713193 ], [ 6.2252112, 48.6713096 ], [ 6.2248827, 48.6711309 ], [ 6.2247372, 48.6709823 ], [ 6.2241242, 48.6709991 ], [ 6.2239902, 48.6715309 ], [ 6.2237376, 48.671909 ], [ 6.2232354, 48.6722209 ], [ 6.2211165, 48.6728621 ], [ 6.2199336, 48.6731007 ], [ 6.2184654, 48.673549 ], [ 6.2169613, 48.6738812 ], [ 6.2150627, 48.674042 ], [ 6.2147517, 48.6740455 ], [ 6.214574, 48.6739698 ], [ 6.2144477, 48.6738639 ], [ 6.2143886, 48.6736562 ], [ 6.21439, 48.673329 ], [ 6.214471, 48.6731983 ], [ 6.2144258, 48.672823 ], [ 6.2143526, 48.6727792 ], [ 6.2142196, 48.6727944 ], [ 6.2139626, 48.6728032 ], [ 6.2134583, 48.6727386 ], [ 6.2133039, 48.6727546 ], [ 6.2127992, 48.6729602 ], [ 6.2126771, 48.6729786 ], [ 6.2126188, 48.6730888 ], [ 6.2069695, 48.6856315 ], [ 6.2069367, 48.6873354 ], [ 6.206701, 48.6878437 ], [ 6.2065683, 48.6878747 ], [ 6.2062396, 48.6887969 ], [ 6.2057739, 48.689631 ], [ 6.2053302, 48.6901033 ], [ 6.2039736, 48.6911267 ], [ 6.2033447, 48.6917278 ], [ 6.2030594, 48.6924365 ], [ 6.2030258, 48.692971 ], [ 6.2030981, 48.6934522 ], [ 6.2032677, 48.6937678 ], [ 6.2036559, 48.6941919 ], [ 6.2043648, 48.6946217 ], [ 6.2061636, 48.6951667 ], [ 6.2065033, 48.6952877 ], [ 6.2068074, 48.6955954 ], [ 6.2067961, 48.6959005 ], [ 6.2064757, 48.6962858 ], [ 6.2052568, 48.697023 ], [ 6.2042983, 48.6976982 ], [ 6.2037814, 48.6983156 ], [ 6.2035909, 48.6987405 ], [ 6.2036047, 48.6989457 ] ] ] } },
{ "type": "Feature", "properties": { "code_insee": "54547", "name": "Vandœuvre-lès-Nancy", "population_totale": 25527.5, "pop_le_5min": 23096.5, "pct_le_5min": 90.48, "pop_le_10min": 24714.0, "pct_le_10min": 96.81, "pop_le_15min": 25396.5, "pct_le_15min": 99.49 }, "geometry": { "type": "Polygon", "coordinates": [ [ [ 6.1237188, 48.6505931 ], [ 6.1246077, 48.6516364 ], [ 6.1258432, 48.6526567 ], [ 6.1261186, 48.6536456 ], [ 6.1260667, 48.655026 ], [ 6.1274501, 48.6567707 ], [ 6.1386485, 48.6544865 ], [ 6.1386606, 48.6544841 ], [ 6.1394133, 48.6563543 ], [ 6.1394319, 48.656421 ], [ 6.1406325, 48.6563294 ], [ 6.1408593, 48.6563628 ], [ 6.1411494, 48.6563963 ], [ 6.1415658, 48.6564156 ], [ 6.1421373, 48.6563378 ], [ 6.1423567, 48.6563223 ], [ 6.1433431, 48.6562463 ], [ 6.1453285, 48.6560932 ], [ 6.1462685, 48.6557919 ], [ 6.146515, 48.655689 ], [ 6.146641, 48.65564 ], [ 6.146747, 48.655599 ], [ 6.147001, 48.655498 ], [ 6.147219, 48.655412 ], [ 6.1492709, 48.657521 ], [ 6.1498705, 48.657847 ], [ 6.1501415, 48.657861 ], [ 6.1513255, 48.6592231 ], [ 6.1514271, 48.6591851 ], [ 6.1520385, 48.6600068 ], [ 6.1520787, 48.6601901 ], [ 6.1527636, 48.6606055 ], [ 6.1545851, 48.6593733 ], [ 6.1552553, 48.6590277 ], [ 6.1560504, 48.6600855 ], [ 6.156582, 48.661683 ], [ 6.1572233, 48.6630056 ], [ 6.1573211, 48.6634869 ], [ 6.1578844, 48.6642201 ], [ 6.1584867, 48.6644919 ], [ 6.1588079, 48.6647061 ], [ 6.159092, 48.6646619 ], [ 6.1598335, 48.6651331 ], [ 6.1603233, 48.6657282 ], [ 6.160338, 48.6660334 ], [ 6.1602701, 48.6662838 ], [ 6.1605171, 48.6668928 ], [ 6.1612636, 48.6674272 ], [ 6.1619688, 48.667992 ], [ 6.1620526, 48.6681898 ], [ 6.1622579, 48.6680686 ], [ 6.1626284, 48.6677826 ], [ 6.162951, 48.6675893 ], [ 6.1631295, 48.6675006 ], [ 6.1639107, 48.6672033 ], [ 6.1649214, 48.666906 ], [ 6.1667282, 48.6677495 ], [ 6.1670084, 48.6677012 ], [ 6.1677943, 48.668122 ], [ 6.1680496, 48.6681328 ], [ 6.1682989, 48.6683837 ], [ 6.1685382, 48.6683141 ], [ 6.1692601, 48.6684745 ], [ 6.1700733, 48.6688036 ], [ 6.1706677, 48.6691918 ], [ 6.1714181, 48.669682 ], [ 6.1719247, 48.6701609 ], [ 6.1733048, 48.6709247 ], [ 6.1744261, 48.6714411 ], [ 6.1751035, 48.6717037 ], [ 6.1752031, 48.6717464 ], [ 6.175283, 48.6717809 ], [ 6.1754634, 48.6718589 ], [ 6.1773496, 48.6726713 ], [ 6.1782111, 48.672801 ], [ 6.1793229, 48.6732561 ], [ 6.1795275, 48.6733076 ], [ 6.1800968, 48.6736449 ], [ 6.1804636, 48.6737686 ], [ 6.1815107, 48.6743449 ], [ 6.1837086, 48.6755545 ], [ 6.1840313, 48.6757321 ], [ 6.1844791, 48.6758272 ], [ 6.1846454, 48.676016 ], [ 6.1855885, 48.6765676 ], [ 6.1859295, 48.676817 ], [ 6.1865274, 48.6771905 ], [ 6.1866329, 48.677161 ], [ 6.1869066, 48.6773463 ], [ 6.1888859, 48.6762938 ], [ 6.1891576, 48.6760091 ], [ 6.1936433, 48.6724341 ], [ 6.1935787, 48.6722937 ], [ 6.1942356, 48.6720614 ], [ 6.1946079, 48.6718407 ], [ 6.1949176, 48.6716571 ], [ 6.1955942, 48.6700538 ], [ 6.195387, 48.6697866 ], [ 6.1958415, 48.6694647 ], [ 6.1969256, 48.6669098 ], [ 6.1966069, 48.666418 ], [ 6.1963973, 48.6660704 ], [ 6.1963737, 48.6660268 ], [ 6.1961227, 48.6655639 ], [ 6.1962338, 48.665537 ], [ 6.1961345, 48.6653602 ], [ 6.1957717, 48.6647139 ], [ 6.1954185, 48.664081 ], [ 6.1952474, 48.6637634 ], [ 6.1947677, 48.6628728 ], [ 6.1943375, 48.6620741 ], [ 6.1930173, 48.6612995 ], [ 6.1914458, 48.6603776 ], [ 6.1914888, 48.6600065 ], [ 6.1913, 48.6599909 ], [ 6.1912562, 48.6598535 ], [ 6.1905569, 48.6598041 ], [ 6.1889845, 48.6594551 ], [ 6.1887643, 48.6594626 ], [ 6.188781, 48.6589647 ], [ 6.1888961, 48.6585731 ], [ 6.1893247, 48.6572862 ], [ 6.1892874, 48.6563733 ], [ 6.1895193, 48.6552319 ], [ 6.1895491, 48.6543314 ], [ 6.1895162, 48.653762 ], [ 6.1890032, 48.6538379 ], [ 6.1866256, 48.6537796 ], [ 6.186587, 48.6534225 ], [ 6.1851804, 48.6534071 ], [ 6.1840095, 48.6533489 ], [ 6.1820348, 48.6529331 ], [ 6.1821927, 48.6525475 ], [ 6.1811689, 48.6522969 ], [ 6.1809978, 48.6523685 ], [ 6.1805912, 48.6521043 ], [ 6.1794689, 48.6517551 ], [ 6.1787067, 48.651518 ], [ 6.1785306, 48.6514632 ], [ 6.1780358, 48.6513132 ], [ 6.1769189, 48.6510421 ], [ 6.1760854, 48.6509257 ], [ 6.1758783, 48.6508156 ], [ 6.1742941, 48.6504523 ], [ 6.1736672, 48.6504808 ], [ 6.1732149, 48.6506277 ], [ 6.172131, 48.6512438 ], [ 6.1717479, 48.6513573 ], [ 6.1716666, 48.651411 ], [ 6.1699431, 48.6522885 ], [ 6.1698702, 48.651872 ], [ 6.1699281, 48.6516544 ], [ 6.1698828, 48.6511792 ], [ 6.1695912, 48.6505026 ], [ 6.1695721, 48.6503443 ], [ 6.1696501, 48.6501995 ], [ 6.1696268, 48.6500394 ], [ 6.1696255, 48.6496688 ], [ 6.1695524, 48.6494317 ], [ 6.1696171, 48.6490859 ], [ 6.1696069, 48.6488361 ], [ 6.1695199, 48.6487134 ], [ 6.1693462, 48.6485424 ], [ 6.1692283, 48.6484138 ], [ 6.1692736, 48.6481718 ], [ 6.1679516, 48.6466222 ], [ 6.1658907, 48.6473791 ], [ 6.1648696, 48.6460038 ], [ 6.1645215, 48.6451941 ], [ 6.1640951, 48.6446082 ], [ 6.1638947, 48.6440674 ], [ 6.1638281, 48.6434062 ], [ 6.1638456, 48.6428053 ], [ 6.1630984, 48.6426683 ], [ 6.1625271, 48.6426791 ], [ 6.1595446, 48.643341 ], [ 6.1584953, 48.6434505 ], [ 6.1582781, 48.6434038 ], [ 6.1577405, 48.6434219 ], [ 6.1564539, 48.6432225 ], [ 6.1561653, 48.64321 ], [ 6.1545254, 48.6431391 ], [ 6.1531509, 48.6432527 ], [ 6.1526939, 48.6432613 ], [ 6.1514405, 48.6430807 ], [ 6.1502847, 48.6431927 ], [ 6.147899, 48.6442647 ], [ 6.1458976, 48.6449586 ], [ 6.1452854, 48.6453485 ], [ 6.1443361, 48.6459545 ], [ 6.1426941, 48.6465621 ], [ 6.1425878, 48.6467679 ], [ 6.1421968, 48.6469764 ], [ 6.1421128, 48.6471194 ], [ 6.1414485, 48.6468506 ], [ 6.1399863, 48.6465719 ], [ 6.1393764, 48.6462688 ], [ 6.1382452, 48.6458059 ], [ 6.1365645, 48.6451181 ], [ 6.1361335, 48.6449075 ], [ 6.1356124, 48.6447564 ], [ 6.134553, 48.6455675 ], [ 6.1337969, 48.645923 ], [ 6.1310804, 48.644841 ], [ 6.1306801, 48.644659 ], [ 6.1299462, 48.6445882 ], [ 6.127648, 48.6453107 ], [ 6.1274691, 48.645366 ], [ 6.1259342, 48.6460599 ], [ 6.126078, 48.6470358 ], [ 6.1259443, 48.647643 ], [ 6.1258908, 48.6478862 ], [ 6.1258579, 48.6480354 ], [ 6.1253475, 48.6486457 ], [ 6.1239597, 48.6503051 ], [ 6.1237188, 48.6505931 ] ] ] } },
{ "type": "Feature", "properties": { "code_insee": "54578", "name": "Villers-lès-Nancy", "population_totale": 13637.0, "pop_le_5min": 12848.5, "pct_le_5min": 94.22, "pop_le_10min": 13602.0, "pct_le_10min": 99.74, "pop_le_15min": 13637.0, "pct_le_15min": 100.0 }, "geometry": { "type": "Polygon", "coordinates": [ [ [ 6.0905309, 48.6675235 ], [ 6.0922533, 48.6675504 ], [ 6.0929369, 48.6675537 ], [ 6.0965771, 48.6675588 ], [ 6.1020883, 48.6675578 ], [ 6.1066846, 48.6674986 ], [ 6.1113284, 48.6674467 ], [ 6.1113545, 48.6675323 ], [ 6.1136971, 48.6675194 ], [ 6.1148039, 48.6675648 ], [ 6.1167177, 48.6674925 ], [ 6.1184046, 48.6675272 ], [ 6.1191796, 48.6675255 ], [ 6.1197963, 48.6674882 ], [ 6.1209685, 48.6674172 ], [ 6.1228579, 48.6674071 ], [ 6.1237108, 48.6674096 ], [ 6.1298833, 48.6674492 ], [ 6.1304955, 48.6674412 ], [ 6.1307621, 48.6674383 ], [ 6.1315974, 48.6674291 ], [ 6.1322704, 48.6672206 ], [ 6.1324735, 48.6679332 ], [ 6.1335068, 48.6691665 ], [ 6.1346059, 48.6701913 ], [ 6.1348248, 48.670689 ], [ 6.1347558, 48.6712601 ], [ 6.1347545, 48.6712708 ], [ 6.1346504, 48.6721331 ], [ 6.1347888, 48.6727619 ], [ 6.1351083, 48.6733933 ], [ 6.135176, 48.6740772 ], [ 6.1349905, 48.6742188 ], [ 6.1350762, 48.6749009 ], [ 6.1364888, 48.6753138 ], [ 6.1366591, 48.6752852 ], [ 6.1370034, 48.6755063 ], [ 6.1372737, 48.6757012 ], [ 6.1373073, 48.67569 ], [ 6.1373438, 48.6758308 ], [ 6.1373968, 48.6758328 ], [ 6.1377317, 48.6761765 ], [ 6.1383192, 48.6766262 ], [ 6.1396017, 48.677222 ], [ 6.1406414, 48.6764239 ], [ 6.1412968, 48.6759458 ], [ 6.1413089, 48.6759431 ], [ 6.1410852, 48.6757983 ], [ 6.1418928, 48.6752095 ], [ 6.1422962, 48.6753685 ], [ 6.142548, 48.6754437 ], [ 6.142872, 48.6755533 ], [ 6.1437091, 48.6757188 ], [ 6.14382, 48.6757589 ], [ 6.1441079, 48.675812 ], [ 6.1442021, 48.6758435 ], [ 6.1450344, 48.6760339 ], [ 6.1451949, 48.675843 ], [ 6.1452398, 48.6758495 ], [ 6.1452625, 48.6758786 ], [ 6.1453346, 48.6758824 ], [ 6.1453914, 48.6759021 ], [ 6.1455545, 48.6759369 ], [ 6.1456689, 48.6760155 ], [ 6.1457426, 48.676015 ], [ 6.1458195, 48.6760474 ], [ 6.1459084, 48.6760192 ], [ 6.1461727, 48.6760189 ], [ 6.1464393, 48.6760373 ], [ 6.1464724, 48.6761683 ], [ 6.1467855, 48.6762076 ], [ 6.1469537, 48.6762683 ], [ 6.1469942, 48.6762698 ], [ 6.1472979, 48.6762814 ], [ 6.1473293, 48.6762742 ], [ 6.1475333, 48.6762826 ], [ 6.1476665, 48.6763416 ], [ 6.1478461, 48.6764974 ], [ 6.1479, 48.6766428 ], [ 6.1481502, 48.6768465 ], [ 6.1481707, 48.6769059 ], [ 6.1483141, 48.6769752 ], [ 6.1483415, 48.6769028 ], [ 6.1482669, 48.6768252 ], [ 6.1483257, 48.6767738 ], [ 6.1484923, 48.6767684 ], [ 6.1485402, 48.6767815 ], [ 6.1485759, 48.6768818 ], [ 6.1485146, 48.6770827 ], [ 6.1487717, 48.6774162 ], [ 6.1489611, 48.6774359 ], [ 6.1489244, 48.6774937 ], [ 6.1489745, 48.6775876 ], [ 6.1492949, 48.6777253 ], [ 6.1494636, 48.6777647 ], [ 6.1495125, 48.6778448 ], [ 6.149559, 48.6778585 ], [ 6.1497005, 48.6778692 ], [ 6.1497935, 48.6778626 ], [ 6.1498429, 48.6778671 ], [ 6.1499511, 48.6779153 ], [ 6.1500512, 48.6779468 ], [ 6.1501867, 48.6780504 ], [ 6.1503528, 48.6780344 ], [ 6.1504912, 48.6779851 ], [ 6.1505587, 48.6780165 ], [ 6.1506233, 48.6781189 ], [ 6.1506423, 48.6783196 ], [ 6.1506311, 48.6783434 ], [ 6.1508407, 48.6783952 ], [ 6.1510524, 48.6784216 ], [ 6.1511262, 48.6783947 ], [ 6.1512468, 48.6783222 ], [ 6.151456, 48.6783213 ], [ 6.1515288, 48.6783265 ], [ 6.1517071, 48.6783825 ], [ 6.1518924, 48.6783998 ], [ 6.152004, 48.6784922 ], [ 6.1521856, 48.6785165 ], [ 6.1524108, 48.678674 ], [ 6.1524445, 48.6787085 ], [ 6.152546, 48.6787574 ], [ 6.1526499, 48.6789217 ], [ 6.152787, 48.6790377 ], [ 6.1529572, 48.6791557 ], [ 6.1531749, 48.6793106 ], [ 6.1532724, 48.6793987 ], [ 6.1533717, 48.6794785 ], [ 6.1538498, 48.679873 ], [ 6.1537891, 48.6800478 ], [ 6.1539216, 48.6800521 ], [ 6.1546059, 48.680378 ], [ 6.1548047, 48.680438 ], [ 6.1548976, 48.6804361 ], [ 6.154821, 48.67943 ], [ 6.1554634, 48.6784776 ], [ 6.1563205, 48.677328 ], [ 6.15642, 48.6772229 ], [ 6.1578823, 48.6775229 ], [ 6.1591851, 48.6778786 ], [ 6.1595793, 48.6780061 ], [ 6.1605902, 48.6784821 ], [ 6.1613089, 48.6791997 ], [ 6.1614762, 48.6789486 ], [ 6.1616213, 48.6787539 ], [ 6.1620247, 48.6782338 ], [ 6.1621528, 48.6779113 ], [ 6.1625451, 48.6775203 ], [ 6.1626008, 48.6769707 ], [ 6.1625226, 48.6768976 ], [ 6.1627149, 48.6762399 ], [ 6.1627449, 48.6761583 ], [ 6.1631493, 48.6751889 ], [ 6.1635616, 48.6745473 ], [ 6.1644522, 48.6731614 ], [ 6.1612464, 48.6719468 ], [ 6.1601558, 48.671319 ], [ 6.1603388, 48.6710892 ], [ 6.159355, 48.6707042 ], [ 6.1595012, 48.6705048 ], [ 6.1595896, 48.6703171 ], [ 6.1602251, 48.6696053 ], [ 6.1613074, 48.6691137 ], [ 6.1618897, 48.6688492 ], [ 6.1621332, 48.6683872 ], [ 6.1620526, 48.6681898 ], [ 6.1619688, 48.667992 ], [ 6.1612636, 48.6674272 ], [ 6.1605171, 48.6668928 ], [ 6.1602701, 48.6662838 ], [ 6.160338, 48.6660334 ], [ 6.1603233, 48.6657282 ], [ 6.1598335, 48.6651331 ], [ 6.159092, 48.6646619 ], [ 6.1588079, 48.6647061 ], [ 6.1584867, 48.6644919 ], [ 6.1578844, 48.6642201 ], [ 6.1573211, 48.6634869 ], [ 6.1572233, 48.6630056 ], [ 6.156582, 48.661683 ], [ 6.1560504, 48.6600855 ], [ 6.1552553, 48.6590277 ], [ 6.1545851, 48.6593733 ], [ 6.1527636, 48.6606055 ], [ 6.1520787, 48.6601901 ], [ 6.1520385, 48.6600068 ], [ 6.1514271, 48.6591851 ], [ 6.1513255, 48.6592231 ], [ 6.1501415, 48.657861 ], [ 6.1498705, 48.657847 ], [ 6.1492709, 48.657521 ], [ 6.147219, 48.655412 ], [ 6.147001, 48.655498 ], [ 6.146747, 48.655599 ], [ 6.146641, 48.65564 ], [ 6.146515, 48.655689 ], [ 6.1462685, 48.6557919 ], [ 6.1453285, 48.6560932 ], [ 6.1433431, 48.6562463 ], [ 6.1423567, 48.6563223 ], [ 6.1421373, 48.6563378 ], [ 6.1415658, 48.6564156 ], [ 6.1411494, 48.6563963 ], [ 6.1408593, 48.6563628 ], [ 6.1406325, 48.6563294 ], [ 6.1394319, 48.656421 ], [ 6.1394133, 48.6563543 ], [ 6.1386606, 48.6544841 ], [ 6.1386485, 48.6544865 ], [ 6.1274501, 48.6567707 ], [ 6.1260667, 48.655026 ], [ 6.1261186, 48.6536456 ], [ 6.1258432, 48.6526567 ], [ 6.1246077, 48.6516364 ], [ 6.1237188, 48.6505931 ], [ 6.1239597, 48.6503051 ], [ 6.1253475, 48.6486457 ], [ 6.1258579, 48.6480354 ], [ 6.1258908, 48.6478862 ], [ 6.1259443, 48.647643 ], [ 6.126078, 48.6470358 ], [ 6.1259342, 48.6460599 ], [ 6.1253474, 48.6456836 ], [ 6.1242412, 48.6449741 ], [ 6.1227847, 48.6442496 ], [ 6.1216125, 48.6433714 ], [ 6.121327, 48.6430694 ], [ 6.1208458, 48.6425605 ], [ 6.1206285, 48.6419908 ], [ 6.1202666, 48.6412356 ], [ 6.12009, 48.6404901 ], [ 6.1200646, 48.6403827 ], [ 6.1198144, 48.6404373 ], [ 6.1187773, 48.640766 ], [ 6.1182346, 48.6408418 ], [ 6.1175891, 48.6411115 ], [ 6.1174246, 48.6411802 ], [ 6.1167809, 48.6416459 ], [ 6.1156844, 48.6421092 ], [ 6.115055, 48.6427647 ], [ 6.1151159, 48.6432242 ], [ 6.1152758, 48.6434958 ], [ 6.1153145, 48.6437772 ], [ 6.1151236, 48.6441297 ], [ 6.113981, 48.6450214 ], [ 6.1110312, 48.6449233 ], [ 6.1093001, 48.6451712 ], [ 6.1080369, 48.6471168 ], [ 6.1080613, 48.6477852 ], [ 6.1078317, 48.6485485 ], [ 6.1061337, 48.6506182 ], [ 6.1057307, 48.6509315 ], [ 6.1056934, 48.6511289 ], [ 6.105411, 48.6513068 ], [ 6.1052779, 48.6513907 ], [ 6.1044624, 48.6524677 ], [ 6.1030711, 48.6538752 ], [ 6.1028523, 48.6539748 ], [ 6.1019243, 48.6545997 ], [ 6.1005693, 48.6552215 ], [ 6.0997288, 48.6558348 ], [ 6.0987555, 48.6565449 ], [ 6.0982089, 48.6569437 ], [ 6.097342, 48.6578031 ], [ 6.0971292, 48.6584447 ], [ 6.0971563, 48.6607686 ], [ 6.0960196, 48.6614004 ], [ 6.0948422, 48.6616066 ], [ 6.0944187, 48.6618802 ], [ 6.0942512, 48.6620516 ], [ 6.0940225, 48.6622856 ], [ 6.0930386, 48.6628661 ], [ 6.0921954, 48.6635805 ], [ 6.0914487, 48.6640724 ], [ 6.0911936, 48.664502 ], [ 6.0911615, 48.6663894 ], [ 6.0910642, 48.6667466 ], [ 6.0910046, 48.6669657 ], [ 6.0905309, 48.6675235 ] ] ] } }
]
}
